{"type":"FeatureCollection","features":[{"type":"Feature","geometry":{"type":"Point","coordinates":[139.76772,35.68909]},"properties":{"name":"千代田合同庁舎（水道局千代田営業所）","address":"千代田区内神田２－１－１２","location":"２階","admissionFeeNote":null,"type":"ボトルディスペンサー型","sourceId":"tokyowater-drinking-stations"}},{"type":"Feature","geometry":{"type":"Point","coordinates":[139.75482,35.67051]},"properties":{"name":"内幸町駅（都営三田線）","address":"千代田区内幸町２－２－３先","location":"ホーム","admissionFeeNote":"有料","type":"飲み口型","sourceId":"tokyowater-drinking-stations"}},{"type":"Feature","geometry":{"type":"Point","coordinates":[139.77496,35.69606]},"properties":{"name":"岩本町駅（都営新宿線）","address":"千代田区神田岩本町１","location":"ホーム","admissionFeeNote":"有料","type":"飲み口型","sourceId":"tokyowater-drinking-stations"}},{"type":"Feature","geometry":{"type":"Point","coordinates":[139.76611,35.69514]},"properties":{"name":"小川町駅（都営新宿線）","address":"千代田区神田小川町１－６","location":"ホーム","admissionFeeNote":"有料","type":"飲み口型","sourceId":"tokyowater-drinking-stations"}},{"type":"Feature","geometry":{"type":"Point","coordinates":[139.75789,35.69561]},"properties":{"name":"神保町駅（都営三田線）","address":"千代田区神田神保町２－１","location":"ホーム","admissionFeeNote":"有料","type":"飲み口型","sourceId":"tokyowater-drinking-stations"}},{"type":"Feature","geometry":{"type":"Point","coordinates":[139.7558,35.6957]},"properties":{"name":"神保町駅（都営新宿線）","address":"千代田区神田神保町２－７","location":"ホーム","admissionFeeNote":"有料","type":"飲み口型","sourceId":"tokyowater-drinking-stations"}},{"type":"Feature","geometry":{"type":"Point","coordinates":[139.75354,35.69395]},"properties":{"name":"千代田区役所本庁舎","address":"千代田区九段南１－２－１","location":"２～８・１０階","admissionFeeNote":null,"type":"飲み口型","sourceId":"tokyowater-drinking-stations"}},{"type":"Feature","geometry":{"type":"Point","coordinates":[139.73755,35.69086]},"properties":{"name":"市ヶ谷駅（都営新宿線）","address":"千代田区九段南４－８－２２","location":"ホーム","admissionFeeNote":"有料","type":"飲み口型","sourceId":"tokyowater-drinking-stations"}},{"type":"Feature","geometry":{"type":"Point","coordinates":[139.76355,35.6843]},"properties":{"name":"大手町駅（都営三田線）","address":"千代田区丸の内１－３－１先","location":"ホーム","admissionFeeNote":"有料","type":"飲み口型","sourceId":"tokyowater-drinking-stations"}},{"type":"Feature","geometry":{"type":"Point","coordinates":[139.76387,35.67685]},"properties":{"name":"東京国際フォーラム","address":"千代田区丸の内３－５－１","location":"地上広場","admissionFeeNote":null,"type":"ボトルディスペンサー型","sourceId":"tokyowater-drinking-stations"}},{"type":"Feature","geometry":{"type":"Point","coordinates":[139.76076,35.67584]},"properties":{"name":"日比谷駅（都営三田線）","address":"千代田区有楽町１－１３－１先","location":"ホーム","admissionFeeNote":"有料","type":"飲み口型","sourceId":"tokyowater-drinking-stations"}},{"type":"Feature","geometry":{"type":"Point","coordinates":[139.77753,35.65879]},"properties":{"name":"勝どき駅（都営大江戸線）","address":"中央区勝どき２－１０－１５先","location":"ホーム","admissionFeeNote":"有料","type":"飲み口型","sourceId":"tokyowater-drinking-stations"}},{"type":"Feature","geometry":{"type":"Point","coordinates":[139.77243,35.67563]},"properties":{"name":"宝町駅（都営浅草線）","address":"中央区京橋２－１３－１１先","location":"ホーム","admissionFeeNote":"有料","type":"飲み口型","sourceId":"tokyowater-drinking-stations"}},{"type":"Feature","geometry":{"type":"Point","coordinates":[139.76729,35.67026]},"properties":{"name":"東銀座駅（都営浅草線）","address":"中央区銀座４－１０－１０先","location":"ホーム","admissionFeeNote":"有料","type":"飲み口型","sourceId":"tokyowater-drinking-stations"}},{"type":"Feature","geometry":{"type":"Point","coordinates":[139.76682,35.6655]},"properties":{"name":"築地市場駅（都営大江戸線）","address":"中央区築地５－１－２","location":"ホーム","admissionFeeNote":"有料","type":"飲み口型","sourceId":"tokyowater-drinking-stations"}},{"type":"Feature","geometry":{"type":"Point","coordinates":[139.78331,35.66376]},"properties":{"name":"月島駅（都営大江戸線）","address":"中央区月島１－５－４先","location":"ホーム","admissionFeeNote":"有料","type":"飲み口型","sourceId":"tokyowater-drinking-stations"}},{"type":"Feature","geometry":{"type":"Point","coordinates":[139.77559,35.68212]},"properties":{"name":"日本橋駅（都営浅草線）","address":"中央区日本橋１－１３－１先","location":"ホーム","admissionFeeNote":"有料","type":"飲み口型","sourceId":"tokyowater-drinking-stations"}},{"type":"Feature","geometry":{"type":"Point","coordinates":[139.78159,35.68666]},"properties":{"name":"人形町駅（都営浅草線）","address":"中央区日本橋人形町３－７－１３","location":"ホーム","admissionFeeNote":"有料","type":"飲み口型","sourceId":"tokyowater-drinking-stations"}},{"type":"Feature","geometry":{"type":"Point","coordinates":[139.78883,35.68722]},"properties":{"name":"浜町駅（都営新宿線）","address":"中央区日本橋浜町２－５９－３","location":"ホーム","admissionFeeNote":"有料","type":"飲み口型","sourceId":"tokyowater-drinking-stations"}},{"type":"Feature","geometry":{"type":"Point","coordinates":[139.78232,35.69177]},"properties":{"name":"馬喰横山駅（都営新宿線）","address":"中央区日本橋横山町４－１３","location":"ホーム","admissionFeeNote":"有料","type":"飲み口型","sourceId":"tokyowater-drinking-stations"}},{"type":"Feature","geometry":{"type":"Point","coordinates":[139.78448,35.69218]},"properties":{"name":"東日本橋駅（都営浅草線）","address":"中央区東日本橋３－１１－８先","location":"ホーム","admissionFeeNote":"有料","type":"飲み口型","sourceId":"tokyowater-drinking-stations"}},{"type":"Feature","geometry":{"type":"Point","coordinates":[139.76854,35.66605]},"properties":{"name":"築地社会教育会館","address":"築地4丁目15番1号","location":"２階廊下","admissionFeeNote":null,"type":"飲み口型","sourceId":"tokyowater-drinking-stations"}},{"type":"Feature","geometry":{"type":"Point","coordinates":[139.78142,35.68461]},"properties":{"name":"日本橋社会教育会館","address":"中央区日本橋人形町1丁目1番17号　日本橋小学校等複合施設　地下2階","location":"８階ホールロビー","admissionFeeNote":null,"type":"飲み口型","sourceId":"tokyowater-drinking-stations"}},{"type":"Feature","geometry":{"type":"Point","coordinates":[139.78218,35.66207]},"properties":{"name":"月島社会教育会館","address":"中央区月島4丁目1番1号　月島区民センター　4・5階","location":"４階給湯室","admissionFeeNote":null,"type":"飲み口型","sourceId":"tokyowater-drinking-stations"}},{"type":"Feature","geometry":{"type":"Point","coordinates":[139.78584,35.65868]},"properties":{"name":"月島社会教育会館晴海分館\n「アートはるみ」","address":"中央区晴海1丁目4番1号　月島第三小学校等複合施設地下１階","location":"B1階ロビー","admissionFeeNote":null,"type":"ボトルディスペンサー型・飲み口型","sourceId":"tokyowater-drinking-stations"}},{"type":"Feature","geometry":{"type":"Point","coordinates":[139.7756,35.65213]},"properties":{"name":"晴海地域交流センター「はるみらい」","address":"中央区晴海5-2-3","location":"1階・4階","admissionFeeNote":null,"type":"飲み口型","sourceId":"tokyowater-drinking-stations"}},{"type":"Feature","geometry":{"type":"Point","coordinates":[139.725228,35.671665]},"properties":{"name":"赤坂図書館","address":"港区青山１－３－３青山１丁目タワー３階","location":"多目的ホール入り口前・消火栓横","admissionFeeNote":null,"type":"飲み口型","sourceId":"tokyowater-drinking-stations"}},{"type":"Feature","geometry":{"type":"Point","coordinates":[139.73221,35.66602]},"properties":{"name":"六本木駅（都営大江戸線）","address":"港区赤坂９－７－３９","location":"ホーム","admissionFeeNote":"有料","type":"飲み口型","sourceId":"tokyowater-drinking-stations"}},{"type":"Feature","geometry":{"type":"Point","coordinates":[139.73485,35.65704]},"properties":{"name":"麻布十番駅（都営大江戸線）","address":"港区麻布十番１－４－６","location":"ホーム","admissionFeeNote":"有料","type":"飲み口型","sourceId":"tokyowater-drinking-stations"}},{"type":"Feature","geometry":{"type":"Point","coordinates":[139.72321,35.67305]},"properties":{"name":"青山一丁目駅（都営大江戸線）","address":"港区北青山１－２－４","location":"ホーム","admissionFeeNote":"有料","type":"飲み口型","sourceId":"tokyowater-drinking-stations"}},{"type":"Feature","geometry":{"type":"Point","coordinates":[139.74632,35.63432]},"properties":{"name":"芝浦中央公園運動場","address":"港区港南１－４－１","location":null,"admissionFeeNote":null,"type":"飲み口型","sourceId":"tokyowater-drinking-stations"}},{"type":"Feature","geometry":{"type":"Point","coordinates":[139.74942,35.63351]},"properties":{"name":"港南図書館","address":"港区港南３－３－１７","location":"２・３階","admissionFeeNote":null,"type":"飲み口型","sourceId":"tokyowater-drinking-stations"}},{"type":"Feature","geometry":{"type":"Point","coordinates":[139.74849,35.64806]},"properties":{"name":"三田駅（都営三田線）","address":"港区芝５－１８－８","location":"ホーム","admissionFeeNote":"有料","type":"飲み口型","sourceId":"tokyowater-drinking-stations"}},{"type":"Feature","geometry":{"type":"Point","coordinates":[139.745,35.64705]},"properties":{"name":"三田図書館\n（郷土資料館）","address":"港区芝５－２８－４","location":"１・２・３階","admissionFeeNote":null,"type":"飲み口型","sourceId":"tokyowater-drinking-stations"}},{"type":"Feature","geometry":{"type":"Point","coordinates":[139.7467,35.64587]},"properties":{"name":"三田駅（都営浅草線）","address":"港区芝５－３４－１０","location":"ホーム","admissionFeeNote":"有料","type":"飲み口型","sourceId":"tokyowater-drinking-stations"}},{"type":"Feature","geometry":{"type":"Point","coordinates":[139.74849,35.64806]},"properties":{"name":"港勤労福祉会館","address":"港区芝５ー１８ー２","location":"１・２階冷水器","admissionFeeNote":null,"type":"飲み口型","sourceId":"tokyowater-drinking-stations"}},{"type":"Feature","geometry":{"type":"Point","coordinates":[139.75166,35.6462]},"properties":{"name":"港区スポーツセンター","address":"港区芝浦１－１６－１みなとパーク芝浦内","location":"３・４・５・８階","admissionFeeNote":null,"type":"飲み口型","sourceId":"tokyowater-drinking-stations"}},{"type":"Feature","geometry":{"type":"Point","coordinates":[139.74997,35.66101]},"properties":{"name":"みなと図書館","address":"港区芝公園３－２－２５","location":"地下１階","admissionFeeNote":null,"type":"飲み口型","sourceId":"tokyowater-drinking-stations"}},{"type":"Feature","geometry":{"type":"Point","coordinates":[139.74493,35.66101]},"properties":{"name":"芝給水所公園運動場","address":"港区芝公園３－６－７","location":null,"admissionFeeNote":null,"type":"飲み口型","sourceId":"tokyowater-drinking-stations"}},{"type":"Feature","geometry":{"type":"Point","coordinates":[139.74625,35.65598]},"properties":{"name":"芝公園駅（都営三田線）","address":"港区芝公園４－８－１４","location":"ホーム","admissionFeeNote":"有料","type":"飲み口型","sourceId":"tokyowater-drinking-stations"}},{"type":"Feature","geometry":{"type":"Point","coordinates":[139.72984,35.6319]},"properties":{"name":"高輪台駅（都営浅草線）","address":"港区白金台２－２６－７先","location":"ホーム","admissionFeeNote":"有料","type":"飲み口型","sourceId":"tokyowater-drinking-stations"}},{"type":"Feature","geometry":{"type":"Point","coordinates":[139.75911,35.6655]},"properties":{"name":"新橋駅（都営浅草線）","address":"港区新橋２－２１－１先","location":"ホーム","admissionFeeNote":"有料","type":"飲み口型","sourceId":"tokyowater-drinking-stations"}},{"type":"Feature","geometry":{"type":"Point","coordinates":[139.732901,35.637836]},"properties":{"name":"高輪図書館","address":"港区高輪１－２５－５\n高輪コミュティーぷらざ３階","location":"３・４階フロア","admissionFeeNote":null,"type":"飲み口型","sourceId":"tokyowater-drinking-stations"}},{"type":"Feature","geometry":{"type":"Point","coordinates":[139.73901,35.63874]},"properties":{"name":"泉岳寺駅（都営浅草線）","address":"港区高輪２－１６－３４","location":"ホーム","admissionFeeNote":"有料","type":"飲み口型","sourceId":"tokyowater-drinking-stations"}},{"type":"Feature","geometry":{"type":"Point","coordinates":[139.75108,35.66145]},"properties":{"name":"御成門駅（都営三田線）","address":"港区西新橋３－２４－６","location":"ホーム","admissionFeeNote":"有料","type":"飲み口型","sourceId":"tokyowater-drinking-stations"}},{"type":"Feature","geometry":{"type":"Point","coordinates":[139.75513,35.65767]},"properties":{"name":"大門駅（都営浅草線）","address":"港区浜松町１－２７－１２","location":"ホーム","admissionFeeNote":"有料","type":"飲み口型","sourceId":"tokyowater-drinking-stations"}},{"type":"Feature","geometry":{"type":"Point","coordinates":[139.75557,35.65564]},"properties":{"name":"大門駅（都営大江戸線）","address":"港区浜松町２－３－４","location":"ホーム","admissionFeeNote":"有料","type":"飲み口型","sourceId":"tokyowater-drinking-stations"}},{"type":"Feature","geometry":{"type":"Point","coordinates":[139.74382,35.65528]},"properties":{"name":"赤羽橋駅（都営大江戸線）","address":"港区東麻布１－２８－１３","location":"ホーム","admissionFeeNote":"有料","type":"飲み口型","sourceId":"tokyowater-drinking-stations"}},{"type":"Feature","geometry":{"type":"Point","coordinates":[139.76089,35.6625]},"properties":{"name":"汐留駅（都営大江戸線）","address":"港区東新橋１－９－１先","location":"ホーム","admissionFeeNote":"有料","type":"飲み口型","sourceId":"tokyowater-drinking-stations"}},{"type":"Feature","geometry":{"type":"Point","coordinates":[139.74344,35.6546]},"properties":{"name":"水道局港営業所","address":"港区三田１－３－２７","location":"１階","admissionFeeNote":null,"type":"飲み口型","sourceId":"tokyowater-drinking-stations"}},{"type":"Feature","geometry":{"type":"Point","coordinates":[139.71848,35.66946]},"properties":{"name":"青山運動場","address":"港区南青山２－２１－１２","location":null,"admissionFeeNote":null,"type":"飲み口型","sourceId":"tokyowater-drinking-stations"}},{"type":"Feature","geometry":{"type":"Point","coordinates":[139.71657,35.66407]},"properties":{"name":"青山生涯学習館","address":"港区南青山４－１９－７","location":"２階給湯室","admissionFeeNote":null,"type":"ボトルディスペンサー型","sourceId":"tokyowater-drinking-stations"}},{"type":"Feature","geometry":{"type":"Point","coordinates":[139.72585,35.6522]},"properties":{"name":"都立中央図書館","address":"港区南麻布５ー７ー１３","location":"１・４・５階","admissionFeeNote":null,"type":"飲み口型","sourceId":"tokyowater-drinking-stations"}},{"type":"Feature","geometry":{"type":"Point","coordinates":[139.72752,35.65275]},"properties":{"name":"麻布運動場","address":"港区南麻布５－６－３３","location":null,"admissionFeeNote":null,"type":"飲み口型","sourceId":"tokyowater-drinking-stations"}},{"type":"Feature","geometry":{"type":"Point","coordinates":[139.73499,35.65759]},"properties":{"name":"麻布図書館","address":"港区六本木５－１２－２４","location":"５階","admissionFeeNote":null,"type":"飲み口型","sourceId":"tokyowater-drinking-stations"}},{"type":"Feature","geometry":{"type":"Point","coordinates":[139.70596,35.69057]},"properties":{"name":"新宿三丁目駅（都営新宿線）","address":"新宿区新宿３－３－２","location":"ホーム","admissionFeeNote":"有料","type":"飲み口型","sourceId":"tokyowater-drinking-stations"}},{"type":"Feature","geometry":{"type":"Point","coordinates":[139.70663,35.69441]},"properties":{"name":"新宿区役所第二分庁舎","address":"新宿区新宿５－１８－２１","location":"１・２・３階","admissionFeeNote":null,"type":"飲み口型","sourceId":"tokyowater-drinking-stations"}},{"type":"Feature","geometry":{"type":"Point","coordinates":[139.70663,35.69441]},"properties":{"name":"新宿区役所第二分庁舎分館","address":"新宿区新宿５－１８－２１","location":"１・２階","admissionFeeNote":null,"type":"飲み口型","sourceId":"tokyowater-drinking-stations"}},{"type":"Feature","geometry":{"type":"Point","coordinates":[139.70808,35.69921]},"properties":{"name":"東新宿駅（都営大江戸線）","address":"新宿区新宿７－２７－３","location":"ホーム","admissionFeeNote":"有料","type":"飲み口型","sourceId":"tokyowater-drinking-stations"}},{"type":"Feature","geometry":{"type":"Point","coordinates":[139.71486,35.67805]},"properties":{"name":"国立競技場駅（都営大江戸線）","address":"新宿区霞ヶ丘町１０－３","location":"ホーム","admissionFeeNote":"有料","type":"飲み口型","sourceId":"tokyowater-drinking-stations"}},{"type":"Feature","geometry":{"type":"Point","coordinates":[139.70345,35.69392]},"properties":{"name":"新宿区役所本庁舎","address":"新宿区歌舞伎町１－４－１","location":"４・５・６・７階","admissionFeeNote":null,"type":"飲み口型","sourceId":"tokyowater-drinking-stations"}},{"type":"Feature","geometry":{"type":"Point","coordinates":[139.68677,35.71432]},"properties":{"name":"中井駅（都営大江戸線）","address":"新宿区上落合２－２０－８","location":"ホーム","admissionFeeNote":"有料","type":"飲み口型","sourceId":"tokyowater-drinking-stations"}},{"type":"Feature","geometry":{"type":"Point","coordinates":[139.71794,35.69818]},"properties":{"name":"若松河田駅（都営大江戸線）","address":"新宿区河田町１０－１０","location":"ホーム","admissionFeeNote":"有料","type":"飲み口型","sourceId":"tokyowater-drinking-stations"}},{"type":"Feature","geometry":{"type":"Point","coordinates":[139.7229,35.69255]},"properties":{"name":"曙橋駅（都営新宿線）","address":"新宿区住吉町７－１","location":"ホーム","admissionFeeNote":"有料","type":"飲み口型","sourceId":"tokyowater-drinking-stations"}},{"type":"Feature","geometry":{"type":"Point","coordinates":[139.73444,35.7006]},"properties":{"name":"牛込神楽坂駅（都営大江戸線）","address":"新宿区箪笥町１５","location":"ホーム","admissionFeeNote":"有料","type":"飲み口型","sourceId":"tokyowater-drinking-stations"}},{"type":"Feature","geometry":{"type":"Point","coordinates":[139.71463,35.68752]},"properties":{"name":"四谷区民センター\n（水道局新宿営業所）","address":"新宿区内藤町８７","location":"３・４階","admissionFeeNote":null,"type":"飲み口型","sourceId":"tokyowater-drinking-stations"}},{"type":"Feature","geometry":{"type":"Point","coordinates":[139.68306,35.72285]},"properties":{"name":"落合南長崎駅（都営大江戸線）","address":"新宿区西落合３－１－１８","location":"ホーム","admissionFeeNote":"有料","type":"飲み口型","sourceId":"tokyowater-drinking-stations"}},{"type":"Feature","geometry":{"type":"Point","coordinates":[139.69804,35.69337]},"properties":{"name":"新宿西口駅（都営大江戸線）","address":"新宿区西新宿１－３－１７","location":"ホーム","admissionFeeNote":"有料","type":"飲み口型","sourceId":"tokyowater-drinking-stations"}},{"type":"Feature","geometry":{"type":"Point","coordinates":[139.69177,35.68963]},"properties":{"name":"東京都庁第１本庁舎","address":"新宿区西新宿２－８－１","location":"４５階　北側・南側展望室","admissionFeeNote":null,"type":"ボトルディスペンサー型・飲み口型","sourceId":"tokyowater-drinking-stations"}},{"type":"Feature","geometry":{"type":"Point","coordinates":[139.69177,35.68963]},"properties":{"name":"都議会議事堂","address":"新宿区西新宿２－８－１","location":"１階トイレ前・２階ＰＲコーナー・７階","admissionFeeNote":null,"type":"飲み口型","sourceId":"tokyowater-drinking-stations"}},{"type":"Feature","geometry":{"type":"Point","coordinates":[139.69177,35.68963]},"properties":{"name":"東京都庁第２本庁舎","address":"新宿区西新宿２－８－１","location":"１・２階","admissionFeeNote":null,"type":"ボトルディスペンサー型・飲み口型","sourceId":"tokyowater-drinking-stations"}},{"type":"Feature","geometry":{"type":"Point","coordinates":[139.69177,35.68963]},"properties":{"name":"都庁前駅（都営大江戸線）","address":"新宿区西新宿２－８－１","location":"ホーム","admissionFeeNote":"有料","type":"飲み口型","sourceId":"tokyowater-drinking-stations"}},{"type":"Feature","geometry":{"type":"Point","coordinates":[139.68375,35.68964]},"properties":{"name":"西新宿五丁目駅（都営大江戸線）","address":"新宿区西新宿５－２５－９","location":"ホーム","admissionFeeNote":"有料","type":"飲み口型","sourceId":"tokyowater-drinking-stations"}},{"type":"Feature","geometry":{"type":"Point","coordinates":[139.724,35.70058]},"properties":{"name":"牛込柳町駅（都営大江戸線）","address":"新宿区原町２－３２","location":"ホーム","admissionFeeNote":"有料","type":"飲み口型","sourceId":"tokyowater-drinking-stations"}},{"type":"Feature","geometry":{"type":"Point","coordinates":[139.71989,35.68814]},"properties":{"name":"消防防災資料センター","address":"新宿区四谷３－１０","location":"地下１・１・３～６・７・１０階","admissionFeeNote":null,"type":"飲み口型","sourceId":"tokyowater-drinking-stations"}},{"type":"Feature","geometry":{"type":"Point","coordinates":[139.73674,35.72109]},"properties":{"name":"スポーツセンター","address":"文京区大塚３－２９－２","location":"１・２・３・４階","admissionFeeNote":null,"type":"ボトルディスペンサー型・飲み口型","sourceId":"tokyowater-drinking-stations"}},{"type":"Feature","geometry":{"type":"Point","coordinates":[139.73094,35.72417]},"properties":{"name":"大塚公園集会所","address":"文京区大塚４－４９－２","location":"１階エントランス","admissionFeeNote":null,"type":"飲み口型","sourceId":"tokyowater-drinking-stations"}},{"type":"Feature","geometry":{"type":"Point","coordinates":[139.75278,35.70794]},"properties":{"name":"春日駅（都営大江戸線）","address":"文京区春日１－１６－１７","location":"ホーム","admissionFeeNote":"有料","type":"飲み口型","sourceId":"tokyowater-drinking-stations"}},{"type":"Feature","geometry":{"type":"Point","coordinates":[139.75011,35.71185]},"properties":{"name":"礫川地域活動センター","address":"文京区小石川２－１８－１８","location":"１階ロビー","admissionFeeNote":null,"type":"飲み口型","sourceId":"tokyowater-drinking-stations"}},{"type":"Feature","geometry":{"type":"Point","coordinates":[139.75171,35.70528]},"properties":{"name":"水道橋駅（都営三田線）","address":"文京区後楽１－３－４２先","location":"ホーム","admissionFeeNote":"有料","type":"飲み口型","sourceId":"tokyowater-drinking-stations"}},{"type":"Feature","geometry":{"type":"Point","coordinates":[139.74672,35.70355]},"properties":{"name":"飯田橋駅（都営大江戸線）","address":"文京区後楽１－９－５","location":"ホーム","admissionFeeNote":"有料","type":"飲み口型","sourceId":"tokyowater-drinking-stations"}},{"type":"Feature","geometry":{"type":"Point","coordinates":[139.74518,35.72714]},"properties":{"name":"千石駅（都営三田線）","address":"文京区千石１－２９－１３","location":"ホーム","admissionFeeNote":"有料","type":"飲み口型","sourceId":"tokyowater-drinking-stations"}},{"type":"Feature","geometry":{"type":"Point","coordinates":[139.75168,35.72089]},"properties":{"name":"白山駅（都営三田線）","address":"文京区白山５－３６－１０","location":"ホーム","admissionFeeNote":"有料","type":"飲み口型","sourceId":"tokyowater-drinking-stations"}},{"type":"Feature","geometry":{"type":"Point","coordinates":[139.76016,35.70711]},"properties":{"name":"本郷三丁目駅（都営大江戸線）","address":"文京区本郷２－４０－８","location":"ホーム","admissionFeeNote":"有料","type":"飲み口型","sourceId":"tokyowater-drinking-stations"}},{"type":"Feature","geometry":{"type":"Point","coordinates":[139.76006,35.70344]},"properties":{"name":"東京都水道歴史館","address":"文京区本郷２－７－１","location":"１階ラウンジ・２階公苑側休憩所","admissionFeeNote":null,"type":"ボトルディスペンサー型・飲み口型","sourceId":"tokyowater-drinking-stations"}},{"type":"Feature","geometry":{"type":"Point","coordinates":[139.75456,35.70855]},"properties":{"name":"区民センター","address":"文京区本郷４－１５－１４","location":"２・３・４階（冷水器）","admissionFeeNote":null,"type":"飲み口型","sourceId":"tokyowater-drinking-stations"}},{"type":"Feature","geometry":{"type":"Point","coordinates":[139.75456,35.70855]},"properties":{"name":"春日駅（都営三田線）","address":"文京区本郷４－１５－１６","location":"ホーム","admissionFeeNote":"有料","type":"飲み口型","sourceId":"tokyowater-drinking-stations"}},{"type":"Feature","geometry":{"type":"Point","coordinates":[139.76254,35.70817]},"properties":{"name":"総合体育館","address":"文京区本郷７－１－２","location":"地下１階、１階、２階","admissionFeeNote":null,"type":"飲み口型","sourceId":"tokyowater-drinking-stations"}},{"type":"Feature","geometry":{"type":"Point","coordinates":[139.75243,35.72842]},"properties":{"name":"駒込地域活動センター","address":"文京区本駒込３－２２－４","location":"１階エントランス","admissionFeeNote":null,"type":"飲み口型","sourceId":"tokyowater-drinking-stations"}},{"type":"Feature","geometry":{"type":"Point","coordinates":[139.7554,35.7332]},"properties":{"name":"文京区勤労福祉会館","address":"文京区本駒込４－３５－１５","location":"１階ロビー","admissionFeeNote":null,"type":"飲み口型","sourceId":"tokyowater-drinking-stations"}},{"type":"Feature","geometry":{"type":"Point","coordinates":[139.75783,35.71748]},"properties":{"name":"向丘地域活動センター","address":"文京区向丘１－２０－８","location":"１階廊下","admissionFeeNote":null,"type":"飲み口型","sourceId":"tokyowater-drinking-stations"}},{"type":"Feature","geometry":{"type":"Point","coordinates":[139.74319,35.72475]},"properties":{"name":"大原地域活動センター","address":"文京区千石１－４－３","location":"１階ロビー","admissionFeeNote":null,"type":"飲み口型","sourceId":"tokyowater-drinking-stations"}},{"type":"Feature","geometry":{"type":"Point","coordinates":[139.764245,35.71921]},"properties":{"name":"不忍通りふれあい館","address":"文京区文京区根津２－２０－７","location":"１階","admissionFeeNote":null,"type":"飲み口型","sourceId":"tokyowater-drinking-stations"}},{"type":"Feature","geometry":{"type":"Point","coordinates":[139.77994,35.7126]},"properties":{"name":"台東区役所","address":"台東区東上野4-5-6","location":"２・４・５・７・９・１０階","admissionFeeNote":null,"type":"飲み口型","sourceId":"tokyowater-drinking-stations"}},{"type":"Feature","geometry":{"type":"Point","coordinates":[139.77516,35.70722]},"properties":{"name":"上野御徒町駅（都営大江戸線）","address":"台東区上野５－２６－６","location":"ホーム","admissionFeeNote":"有料","type":"飲み口型","sourceId":"tokyowater-drinking-stations"}},{"type":"Feature","geometry":{"type":"Point","coordinates":[139.79016,35.70231]},"properties":{"name":"蔵前駅（都営浅草線）","address":"台東区蔵前２－３－１","location":"ホーム","admissionFeeNote":"有料","type":"飲み口型","sourceId":"tokyowater-drinking-stations"}},{"type":"Feature","geometry":{"type":"Point","coordinates":[139.79214,35.70584]},"properties":{"name":"蔵前駅（都営大江戸線）","address":"台東区寿３－３－１","location":"ホーム","admissionFeeNote":"有料","type":"飲み口型","sourceId":"tokyowater-drinking-stations"}},{"type":"Feature","geometry":{"type":"Point","coordinates":[139.78244,35.70719]},"properties":{"name":"新御徒町駅（都営大江戸線）","address":"台東区元浅草１－５－２","location":"ホーム","admissionFeeNote":"有料","type":"飲み口型","sourceId":"tokyowater-drinking-stations"}},{"type":"Feature","geometry":{"type":"Point","coordinates":[139.78613,35.69761]},"properties":{"name":"浅草橋駅（都営浅草線）","address":"台東区浅草橋１－１８－１１","location":"ホーム","admissionFeeNote":"有料","type":"飲み口型","sourceId":"tokyowater-drinking-stations"}},{"type":"Feature","geometry":{"type":"Point","coordinates":[139.77049,35.71697]},"properties":{"name":"恩賜上野動物園","address":"台東区上野公園９ー８３","location":"さるやまキッチン","admissionFeeNote":"有料","type":"ボトルディスペンサー型","sourceId":"tokyowater-drinking-stations"}},{"type":"Feature","geometry":{"type":"Point","coordinates":[139.78412,35.63304]},"properties":{"name":"有明スポーツセンター","address":"江東区有明２－３－５","location":"Ａ棟７階・Ｂ棟３階","admissionFeeNote":null,"type":"ボトルディスペンサー型・飲み口型","sourceId":"tokyowater-drinking-stations"}},{"type":"Feature","geometry":{"type":"Point","coordinates":[139.78513,35.63063]},"properties":{"name":"東京都水の科学館","address":"江東区有明３－１－８","location":"１・２・３階エレベーター前","admissionFeeNote":null,"type":"ボトルディスペンサー型・飲み口型","sourceId":"tokyowater-drinking-stations"}},{"type":"Feature","geometry":{"type":"Point","coordinates":[139.79199,35.67065]},"properties":{"name":"深川スポーツセンター","address":"江東区越中島１－２－１８　","location":"１・２・３・４階","admissionFeeNote":null,"type":"ボトルディスペンサー型・飲み口型","sourceId":"tokyowater-drinking-stations"}},{"type":"Feature","geometry":{"type":"Point","coordinates":[139.73166,35.62324]},"properties":{"name":"大崎図書館","address":"品川区北品川５－２－１","location":"２階図書館内","admissionFeeNote":null,"type":"飲み口型","sourceId":"tokyowater-drinking-stations"}},{"type":"Feature","geometry":{"type":"Point","coordinates":[139.72377,35.62615]},"properties":{"name":"五反田駅（都営浅草線）","address":"品川区東五反田１－２６－２","location":"ホーム","admissionFeeNote":"有料","type":"飲み口型","sourceId":"tokyowater-drinking-stations"}},{"type":"Feature","geometry":{"type":"Point","coordinates":[139.72833,35.62427]},"properties":{"name":"総合体育館","address":"品川区東五反田２－１１－２","location":"地下２階","admissionFeeNote":null,"type":"飲み口型","sourceId":"tokyowater-drinking-stations"}},{"type":"Feature","geometry":{"type":"Point","coordinates":[139.72345,35.62775]},"properties":{"name":"東五反田児童センター","address":"品川区東五反田５－２４－１","location":"児童センター内","admissionFeeNote":null,"type":"飲み口型","sourceId":"tokyowater-drinking-stations"}},{"type":"Feature","geometry":{"type":"Point","coordinates":[139.69838,35.64108]},"properties":{"name":"目黒区総合庁舎","address":"目黒区上目黒２－１９－１５","location":"本館１・２・３階、別館２階","admissionFeeNote":null,"type":"飲み口型","sourceId":"tokyowater-drinking-stations"}},{"type":"Feature","geometry":{"type":"Point","coordinates":[139.69209,35.63204]},"properties":{"name":"中央町さくらプラザ","address":"目黒区中央町２－４－１８","location":"１階ロビー","admissionFeeNote":null,"type":"飲み口型","sourceId":"tokyowater-drinking-stations"}},{"type":"Feature","geometry":{"type":"Point","coordinates":[139.69266,35.6329]},"properties":{"name":"水道局目黒営業所","address":"目黒区中町２－４３－１８","location":"１階","admissionFeeNote":null,"type":"飲み口型","sourceId":"tokyowater-drinking-stations"}},{"type":"Feature","geometry":{"type":"Point","coordinates":[139.68495,35.64754]},"properties":{"name":"東山社会教育館","address":"目黒区東山３－２４－２","location":"２階ロビー","admissionFeeNote":null,"type":"飲み口型","sourceId":"tokyowater-drinking-stations"}},{"type":"Feature","geometry":{"type":"Point","coordinates":[139.68137,35.62722]},"properties":{"name":"碑文谷体育館","address":"目黒区碑文谷６－１２－４３","location":"１階体育室口ホール","admissionFeeNote":null,"type":"ボトルディスペンサー型・飲み口型","sourceId":"tokyowater-drinking-stations"}},{"type":"Feature","geometry":{"type":"Point","coordinates":[139.70818,35.63549]},"properties":{"name":"目黒区民センター社会教育館","address":"目黒区目黒２－４－３６","location":"６階","admissionFeeNote":null,"type":"飲み口型","sourceId":"tokyowater-drinking-stations"}},{"type":"Feature","geometry":{"type":"Point","coordinates":[139.70818,35.63549]},"properties":{"name":"目黒区民センター体育館","address":"目黒区目黒２－４－３６","location":"１階トレーニング室・３階ロビー・地下プール","admissionFeeNote":"有料","type":"飲み口型","sourceId":"tokyowater-drinking-stations"}},{"type":"Feature","geometry":{"type":"Point","coordinates":[139.69501,35.62535]},"properties":{"name":"目黒本町社会教育館","address":"目黒区目黒本町２－１－２０","location":"３階ロビー","admissionFeeNote":null,"type":"飲み口型","sourceId":"tokyowater-drinking-stations"}},{"type":"Feature","geometry":{"type":"Point","coordinates":[139.71381,35.64187]},"properties":{"name":"東京都写真美術館","address":"目黒区三田１－１３－３","location":"地下１階トイレ前・２階トイレ前・３階トイレ前","admissionFeeNote":null,"type":"飲み口型","sourceId":"tokyowater-drinking-stations"}},{"type":"Feature","geometry":{"type":"Point","coordinates":[139.67621,35.64149]},"properties":{"name":"下馬図書館","address":"世田谷区下馬２－３２－１","location":"１階フロア","admissionFeeNote":null,"type":"飲み口型","sourceId":"tokyowater-drinking-stations"}},{"type":"Feature","geometry":{"type":"Point","coordinates":[139.67346,35.6433]},"properties":{"name":"水道局世田谷営業所","address":"世田谷区太子堂１－１３－１３","location":"２階","admissionFeeNote":null,"type":"飲み口型","sourceId":"tokyowater-drinking-stations"}},{"type":"Feature","geometry":{"type":"Point","coordinates":[139.68686,35.66891]},"properties":{"name":"富ヶ谷図書館","address":"渋谷区上原１－４６－２","location":"誰でもトイレ入口","admissionFeeNote":null,"type":"飲み口型","sourceId":"tokyowater-drinking-stations"}},{"type":"Feature","geometry":{"type":"Point","coordinates":[139.67903,35.66637]},"properties":{"name":"上原社会教育館","address":"渋谷区上原３－１３－８","location":"地下１階・２階","admissionFeeNote":null,"type":"飲み口型","sourceId":"tokyowater-drinking-stations"}},{"type":"Feature","geometry":{"type":"Point","coordinates":[139.69789,35.66415]},"properties":{"name":"渋谷区役所","address":"渋谷区宇田川町１－１","location":"１～１５階","admissionFeeNote":null,"type":"ボトルディスペンサー型・飲み口型","sourceId":"tokyowater-drinking-stations"}},{"type":"Feature","geometry":{"type":"Point","coordinates":[139.72012,35.64554]},"properties":{"name":"恵比寿社会教育館","address":"渋谷区恵比寿２－２７－１８","location":"地下１階","admissionFeeNote":null,"type":"飲み口型","sourceId":"tokyowater-drinking-stations"}},{"type":"Feature","geometry":{"type":"Point","coordinates":[139.70622,35.64713]},"properties":{"name":"長谷戸社会教育館","address":"渋谷区恵比寿西１－２３－４","location":"１階","admissionFeeNote":null,"type":"飲み口型","sourceId":"tokyowater-drinking-stations"}},{"type":"Feature","geometry":{"type":"Point","coordinates":[139.700121,35.655859]},"properties":{"name":"こもれび大和田図書館","address":"渋谷区桜丘町２３－２１\n文化総合センター大和田２階","location":"児童用トイレ前","admissionFeeNote":null,"type":"飲み口型","sourceId":"tokyowater-drinking-stations"}},{"type":"Feature","geometry":{"type":"Point","coordinates":[139.70392,35.66185]},"properties":{"name":"美竹の丘・しぶや","address":"渋谷区渋谷１－１８－９","location":"１階総合案内前・２階階段","admissionFeeNote":null,"type":"飲み口型","sourceId":"tokyowater-drinking-stations"}},{"type":"Feature","geometry":{"type":"Point","coordinates":[139.70699,35.67241]},"properties":{"name":"中央図書館","address":"渋谷区神宮前1-4-1","location":"１・２・３・４階","admissionFeeNote":null,"type":"飲み口型","sourceId":"tokyowater-drinking-stations"}},{"type":"Feature","geometry":{"type":"Point","coordinates":[139.71001,35.67804]},"properties":{"name":"千駄ヶ谷社会教育館","address":"渋谷区千駄ヶ谷１－６－５","location":"地下１階・１・２・３階","admissionFeeNote":null,"type":"飲み口型","sourceId":"tokyowater-drinking-stations"}},{"type":"Feature","geometry":{"type":"Point","coordinates":[139.71217,35.67936]},"properties":{"name":"東京体育館","address":"渋谷区千駄ヶ谷１－１７－１","location":"プール棟","admissionFeeNote":"有料","type":"ボトルディスペンサー型・飲み口型","sourceId":"tokyowater-drinking-stations"}},{"type":"Feature","geometry":{"type":"Point","coordinates":[139.68221,35.67532]},"properties":{"name":"総合ケアコミュニティ・せせらぎ","address":"渋谷区西原１－４０－１０","location":"１・２階階段踊り場・２階正面玄関ＥＶ横","admissionFeeNote":null,"type":"飲み口型","sourceId":"tokyowater-drinking-stations"}},{"type":"Feature","geometry":{"type":"Point","coordinates":[139.67783,35.67524]},"properties":{"name":"西原図書館","address":"渋谷区西原２－２８－９","location":"２階検索機付近","admissionFeeNote":null,"type":"飲み口型","sourceId":"tokyowater-drinking-stations"}},{"type":"Feature","geometry":{"type":"Point","coordinates":[139.68501,35.67931]},"properties":{"name":"初台青年館","address":"渋谷区初台１ー３３ー１０","location":"４階","admissionFeeNote":null,"type":"飲み口型","sourceId":"tokyowater-drinking-stations"}},{"type":"Feature","geometry":{"type":"Point","coordinates":[139.67787,35.67997]},"properties":{"name":"幡ヶ谷社会教育館（一時使用休止中）","address":"渋谷区幡ヶ谷２－５０－２","location":"２・４階","admissionFeeNote":null,"type":"飲み口型","sourceId":"tokyowater-drinking-stations"}},{"type":"Feature","geometry":{"type":"Point","coordinates":[139.70966,35.65636]},"properties":{"name":"渋谷図書館","address":"渋谷区東１－６－６","location":"地下１階トイレ前・２階こども室入口","admissionFeeNote":null,"type":"飲み口型","sourceId":"tokyowater-drinking-stations"}},{"type":"Feature","geometry":{"type":"Point","coordinates":[139.70737,35.65496]},"properties":{"name":"リフレッシュ氷川","address":"渋谷区東１－２６－２３","location":"地下１階・３階","admissionFeeNote":null,"type":"飲み口型","sourceId":"tokyowater-drinking-stations"}},{"type":"Feature","geometry":{"type":"Point","coordinates":[139.70973,35.65112]},"properties":{"name":"ひがし健康プラザ","address":"渋谷区東３－１４－１３","location":"地下２階・地下１階・１・２階","admissionFeeNote":null,"type":"飲み口型","sourceId":"tokyowater-drinking-stations"}},{"type":"Feature","geometry":{"type":"Point","coordinates":[139.71669,35.64917]},"properties":{"name":"臨川みんなの図書館","address":"渋谷区広尾１－９－１７","location":"１階第３閲覧室廊下","admissionFeeNote":null,"type":"飲み口型","sourceId":"tokyowater-drinking-stations"}},{"type":"Feature","geometry":{"type":"Point","coordinates":[139.68161,35.68076]},"properties":{"name":"本町図書館","address":"渋谷区本町１－３３－５","location":"１階児童トイレ前、１階・２階一般トイレ前","admissionFeeNote":null,"type":"飲み口型","sourceId":"tokyowater-drinking-stations"}},{"type":"Feature","geometry":{"type":"Point","coordinates":[139.68138,35.68945]},"properties":{"name":"地域交流センター　二軒家","address":"渋谷区本町３ー３５ー４","location":"リラクゼーションルーム","admissionFeeNote":null,"type":"飲み口型","sourceId":"tokyowater-drinking-stations"}},{"type":"Feature","geometry":{"type":"Point","coordinates":[139.67931,35.68232]},"properties":{"name":"児童青少年センター","address":"渋谷区本町６－６－２","location":"Ｂ２階・Ｂ１階・１階各廊下・３階","admissionFeeNote":null,"type":"飲み口型","sourceId":"tokyowater-drinking-stations"}},{"type":"Feature","geometry":{"type":"Point","coordinates":[139.70178,35.68382]},"properties":{"name":"代々木駅（都営大江戸線）","address":"渋谷区代々木１－３５－５","location":"ホーム","admissionFeeNote":"有料","type":"飲み口型","sourceId":"tokyowater-drinking-stations"}},{"type":"Feature","geometry":{"type":"Point","coordinates":[139.69957,35.68591]},"properties":{"name":"新宿駅（都営大江戸線）","address":"渋谷区代々木２－１－１","location":"ホーム","admissionFeeNote":"有料","type":"飲み口型","sourceId":"tokyowater-drinking-stations"}},{"type":"Feature","geometry":{"type":"Point","coordinates":[139.70221,35.68774]},"properties":{"name":"東京観光情報センターバスタ新宿","address":"渋谷区千駄ヶ谷5-24-55","location":"バスタ新宿３階","admissionFeeNote":null,"type":"ボトルディスペンサー型","sourceId":"tokyowater-drinking-stations"}},{"type":"Feature","geometry":{"type":"Point","coordinates":[139.68187,35.69766]},"properties":{"name":"中野坂上駅（都営大江戸線）","address":"中野区中央２－２－２８","location":"ホーム","admissionFeeNote":"有料","type":"飲み口型","sourceId":"tokyowater-drinking-stations"}},{"type":"Feature","geometry":{"type":"Point","coordinates":[139.67798,35.70167]},"properties":{"name":"水道局中野営業所","address":"中野区中野１－５－７","location":"１階","admissionFeeNote":null,"type":"飲み口型","sourceId":"tokyowater-drinking-stations"}},{"type":"Feature","geometry":{"type":"Point","coordinates":[139.677,35.70409]},"properties":{"name":"城山ふれあいの家","address":"中野区中野１－２０－４","location":"１階事務室前","admissionFeeNote":null,"type":"飲み口型","sourceId":"tokyowater-drinking-stations"}},{"type":"Feature","geometry":{"type":"Point","coordinates":[139.6828,35.70717]},"properties":{"name":"東中野駅（都営大江戸線）","address":"中野区東中野３－８－１６","location":"ホーム","admissionFeeNote":"有料","type":"飲み口型","sourceId":"tokyowater-drinking-stations"}},{"type":"Feature","geometry":{"type":"Point","coordinates":[139.68262,35.70024]},"properties":{"name":"東部区民活動センター","address":"中野区中央２－１８－２１","location":"２階ロビー","admissionFeeNote":null,"type":"飲み口型","sourceId":"tokyowater-drinking-stations"}},{"type":"Feature","geometry":{"type":"Point","coordinates":[139.67455,35.71864]},"properties":{"name":"上高田図書館","address":"中野区上高田5-30-15","location":"２階エレベーター前","admissionFeeNote":null,"type":"飲み口型","sourceId":"tokyowater-drinking-stations"}},{"type":"Feature","geometry":{"type":"Point","coordinates":[139.68387,35.69867]},"properties":{"name":"中野東図書館","address":"中野区中央1-41-2","location":"7階・8階・9階　階段横","admissionFeeNote":null,"type":"飲み口型","sourceId":"tokyowater-drinking-stations"}},{"type":"Feature","geometry":{"type":"Point","coordinates":[139.67749,35.69577]},"properties":{"name":"中央図書館中野第一小学校分室","address":"中野区本町3-16-1","location":"１階書架横","admissionFeeNote":null,"type":"飲み口型","sourceId":"tokyowater-drinking-stations"}},{"type":"Feature","geometry":{"type":"Point","coordinates":[139.67844,35.71729]},"properties":{"name":"上高田運動施設","address":"中野区上高田5-6-1","location":"野球場（施設利用者のみ）","admissionFeeNote":null,"type":"飲み口型","sourceId":"tokyowater-drinking-stations"}},{"type":"Feature","geometry":{"type":"Point","coordinates":[139.73833,35.73335]},"properties":{"name":"巣鴨駅（都営三田線）","address":"豊島区巣鴨３－２７－７","location":"ホーム","admissionFeeNote":"有料","type":"飲み口型","sourceId":"tokyowater-drinking-stations"}},{"type":"Feature","geometry":{"type":"Point","coordinates":[139.70824,35.72988]},"properties":{"name":"東京芸術劇場","address":"豊島区西池袋１－８－１","location":"地下１階・２・３・５・７・８・９階","admissionFeeNote":"一部除き有料","type":"飲み口型","sourceId":"tokyowater-drinking-stations"}},{"type":"Feature","geometry":{"type":"Point","coordinates":[139.71666,35.72607]},"properties":{"name":"豊島区役所本庁舎","address":"豊島区南池袋２－４５－１","location":"３階、４階","admissionFeeNote":null,"type":"飲み口型","sourceId":"tokyowater-drinking-stations"}},{"type":"Feature","geometry":{"type":"Point","coordinates":[139.69933,35.72601]},"properties":{"name":"豊島区立目白図書館","address":"豊島区目白４－３１－８","location":"１階","admissionFeeNote":null,"type":"飲み口型","sourceId":"tokyowater-drinking-stations"}},{"type":"Feature","geometry":{"type":"Point","coordinates":[139.73347,35.73415]},"properties":{"name":"豊島区立巣鴨図書館","address":"豊島区巣鴨３－８－２","location":"１階","admissionFeeNote":null,"type":"飲み口型","sourceId":"tokyowater-drinking-stations"}},{"type":"Feature","geometry":{"type":"Point","coordinates":[139.70824,35.72988]},"properties":{"name":"東京芸術劇場","address":"豊島区西池袋１－８－１","location":"１階劇場通り側出入口付近","admissionFeeNote":null,"type":"ボトルディスペンサー型","sourceId":"tokyowater-drinking-stations"}},{"type":"Feature","geometry":{"type":"Point","coordinates":[139.77478,35.7312]},"properties":{"name":"日暮里図書館","address":"荒川区東日暮里６－３８－４","location":"地下１階・１階","admissionFeeNote":null,"type":"飲み口型","sourceId":"tokyowater-drinking-stations"}}]}