{"type":"FeatureCollection","features":[{"type":"Feature","geometry":{"type":"Point","coordinates":[139.76772,35.68909]},"properties":{"name":"千代田合同庁舎（水道局千代田営業所）","address":"千代田区内神田２－１－１２","location":"２階","admissionFeeNote":null,"type":"ボトルディスペンサー型","sourceId":"tokyowater-drinking-stations"}},{"type":"Feature","geometry":{"type":"Point","coordinates":[139.75354,35.69395]},"properties":{"name":"千代田区役所本庁舎","address":"千代田区九段南１－２－１","location":"２～８・１０階","admissionFeeNote":null,"type":"飲み口型","sourceId":"tokyowater-drinking-stations"}},{"type":"Feature","geometry":{"type":"Point","coordinates":[139.76355,35.6843]},"properties":{"name":"大手町駅（都営三田線）","address":"千代田区丸の内１－３－１先","location":"ホーム","admissionFeeNote":"有料","type":"飲み口型","sourceId":"tokyowater-drinking-stations"}},{"type":"Feature","geometry":{"type":"Point","coordinates":[139.76387,35.67685]},"properties":{"name":"東京国際フォーラム","address":"千代田区丸の内３－５－１","location":"地上広場","admissionFeeNote":null,"type":"ボトルディスペンサー型","sourceId":"tokyowater-drinking-stations"}},{"type":"Feature","geometry":{"type":"Point","coordinates":[139.76076,35.67584]},"properties":{"name":"日比谷駅（都営三田線）","address":"千代田区有楽町１－１３－１先","location":"ホーム","admissionFeeNote":"有料","type":"飲み口型","sourceId":"tokyowater-drinking-stations"}}]}