{"type":"FeatureCollection","features":[{"type":"Feature","properties":{"id":"tokyo_core_5_wards","name":"東京都心5区","wardIds":["13101","13102","13103","13104","13105"],"wardNames":["千代田区","中央区","港区","新宿区","文京区"],"coverage":{"13101":{"nodeCount":10823,"edgeCount":33290,"boundaryBounds":[139.7301347,35.6686296,139.7828483,35.7052349]},"13102":{"nodeCount":10122,"edgeCount":32714,"boundaryBounds":[139.758555,35.6402011,139.7931527,35.6966138]},"13103":{"nodeCount":14293,"edgeCount":42360,"boundaryBounds":[139.7087439,35.6230363,139.7829301,35.6826516]},"13104":{"nodeCount":15309,"edgeCount":44486,"boundaryBounds":[139.6732748,35.6732207,139.7451394,35.7299039]},"13105":{"nodeCount":10438,"edgeCount":29810,"boundaryBounds":[139.7172608,35.6994885,139.7724617,35.7359098]},"crossWardReachable":true,"weakComponentCount":1}},"geometry":{"type":"Polygon","coordinates":[[[139.7809062,35.6329102],[139.7814811,35.6321956],[139.7829301,35.630497],[139.7819846,35.6299921],[139.7804613,35.6291785],[139.7776937,35.6276279],[139.7766887,35.6270842],[139.7762366,35.6268409],[139.7750018,35.6261763],[139.7740166,35.6256112],[139.7733879,35.6251944],[139.7712212,35.6235449],[139.7699484,35.625122],[139.7692714,35.6259099],[139.7687897,35.6264653],[139.7667063,35.6275064],[139.7664838,35.6272293],[139.7662508,35.6271806],[139.7660279,35.6272416],[139.7658888,35.627407],[139.7659126,35.6275812],[139.7660868,35.6277723],[139.7631903,35.6278027],[139.7594328,35.6277732],[139.7592585,35.6277703],[139.7575412,35.6277353],[139.7576839,35.6242984],[139.754159,35.6242382],[139.7541545,35.6242118],[139.7541366,35.6240324],[139.7534846,35.6240648],[139.7534945,35.6242147],[139.7526561,35.6242066],[139.7527181,35.6253236],[139.7512196,35.6252742],[139.7464405,35.6231343],[139.7442849,35.6233862],[139.744078,35.6237647],[139.743758,35.6243005],[139.7434743,35.6251149],[139.7431226,35.6250125],[139.7427511,35.6249186],[139.7418965,35.6247179],[139.7403199,35.6243506],[139.7399491,35.6242594],[139.7394549,35.6241491],[139.7394116,35.6241975],[139.7392969,35.6243259],[139.7391374,35.6244483],[139.7391212,35.6244316],[139.7389471,35.6245487],[139.738535,35.6248259],[139.7385359,35.6248465],[139.7384992,35.6248727],[139.7384894,35.6249003],[139.7383838,35.6249118],[139.7380097,35.6249527],[139.738348,35.6241823],[139.7382334,35.6236789],[139.7370374,35.6235704],[139.7370616,35.6232092],[139.7353085,35.6230363],[139.7351022,35.6235309],[139.734942,35.6239263],[139.7348202,35.6243161],[139.7347722,35.6244453],[139.7346607,35.6246228],[139.7344169,35.6249888],[139.7340092,35.6256322],[139.7338405,35.6259062],[139.7337955,35.62598],[139.7334633,35.6259063],[139.7334225,35.6260152],[139.7330397,35.6259221],[139.7329436,35.6261027],[139.7327192,35.6260223],[139.7322872,35.6259487],[139.7323761,35.6256637],[139.7321439,35.6256019],[139.7321666,35.6255184],[139.7319437,35.6254338],[139.7319184,35.6254153],[139.7316621,35.6256475],[139.7317631,35.6257201],[139.7320029,35.6257627],[139.731936,35.6259943],[139.7318526,35.625982],[139.7315253,35.6262223],[139.7313868,35.62635],[139.73136,35.6264611],[139.7313539,35.6264873],[139.7311348,35.6264492],[139.7310528,35.6266923],[139.7308709,35.6266357],[139.7308502,35.6266923],[139.7308855,35.6270272],[139.7310872,35.6270209],[139.7310882,35.6271231],[139.731087,35.6271633],[139.7310387,35.6272064],[139.7310043,35.6272876],[139.7309703,35.6273529],[139.7309127,35.6275172],[139.7308671,35.6276635],[139.7313592,35.6276839],[139.7313804,35.6278704],[139.7314538,35.6278557],[139.7314799,35.6280639],[139.7314863,35.6282108],[139.7314891,35.6284379],[139.7314558,35.6285645],[139.7314563,35.628641],[139.7314572,35.6288282],[139.7313092,35.6288176],[139.7311245,35.6290625],[139.7310896,35.6291051],[139.7310749,35.6292319],[139.7310594,35.6293982],[139.7310498,35.6295433],[139.7310557,35.6295852],[139.7310826,35.6297202],[139.7310824,35.6297652],[139.7310784,35.6298726],[139.7310756,35.6299622],[139.7310647,35.6299774],[139.7310212,35.6300305],[139.7309762,35.6300663],[139.7309179,35.6301001],[139.7308748,35.6301166],[139.7308432,35.6301288],[139.730809,35.6301629],[139.7307817,35.6302093],[139.7307483,35.6303437],[139.7306615,35.6304681],[139.7305015,35.6305832],[139.7301718,35.630823],[139.7300307,35.6309529],[139.7297991,35.6311059],[139.7297317,35.6311586],[139.729655,35.6312254],[139.7293469,35.6314939],[139.7292293,35.6313765],[139.7291596,35.6313307],[139.7291022,35.631367],[139.729025,35.6313026],[139.7289528,35.6313537],[139.7288388,35.6314271],[139.7284712,35.6316764],[139.7282219,35.6318665],[139.7282594,35.6320281],[139.7282542,35.6323231],[139.7283501,35.6323844],[139.7283983,35.6324697],[139.7284803,35.6324451],[139.7285654,35.6326313],[139.7286169,35.6327461],[139.7287067,35.6329269],[139.7283998,35.6330595],[139.7282732,35.6330996],[139.7281648,35.6331238],[139.7280373,35.6331531],[139.7278283,35.6326584],[139.727752,35.6324745],[139.7276547,35.6322449],[139.7275603,35.6320214],[139.7274812,35.6318434],[139.7273667,35.6319022],[139.7271842,35.6319835],[139.7270696,35.6320286],[139.7268664,35.6318931],[139.7267429,35.6320396],[139.7265306,35.6326429],[139.7264929,35.6327709],[139.7263428,35.6330016],[139.7266323,35.6337119],[139.7266938,35.6338399],[139.72668,35.6339292],[139.7267098,35.6340003],[139.726794,35.6341981],[139.7267632,35.6342361],[139.7265747,35.6344735],[139.7262754,35.6348193],[139.7262129,35.6348885],[139.7261206,35.6349332],[139.7259278,35.6349988],[139.7256571,35.6350778],[139.7253436,35.6351637],[139.7252448,35.6351817],[139.7245781,35.6352616],[139.7243517,35.6353171],[139.7240918,35.6353813],[139.7237201,35.6354624],[139.7235305,35.6355036],[139.7231949,35.6356024],[139.7230967,35.6356211],[139.7226736,35.6357027],[139.7224641,35.6357853],[139.7223469,35.6358422],[139.7222346,35.6358973],[139.7220923,35.6358193],[139.7220695,35.6358151],[139.7220912,35.6357233],[139.7221289,35.6356005],[139.7221457,35.6356019],[139.7221512,35.63551],[139.7221358,35.6353922],[139.721952,35.6353906],[139.7219551,35.6353319],[139.7217297,35.6353223],[139.7217185,35.6354616],[139.7216435,35.635469],[139.7214192,35.6350412],[139.7213143,35.6351704],[139.7211483,35.6350771],[139.7210092,35.6350036],[139.7210434,35.6349584],[139.7207136,35.6348169],[139.7204623,35.6347145],[139.7205144,35.6345997],[139.7203303,35.6345206],[139.7202988,35.6345776],[139.7202108,35.634548],[139.7202412,35.6344932],[139.7197998,35.6343359],[139.7197306,35.6344526],[139.7196907,35.6345041],[139.719598,35.6346324],[139.7195115,35.6347339],[139.7193777,35.6348857],[139.7192665,35.6349933],[139.7193266,35.6353261],[139.7187802,35.6353144],[139.7186223,35.6353066],[139.7184322,35.6352894],[139.7181761,35.635266],[139.7179833,35.6352368],[139.7180269,35.6349089],[139.7178441,35.6348748],[139.7178717,35.634802],[139.7177967,35.6347804],[139.7177162,35.6348807],[139.7174158,35.6350943],[139.71735,35.6351392],[139.7175236,35.6353204],[139.7172983,35.6354521],[139.7173285,35.6354935],[139.7174017,35.635594],[139.717483,35.6356762],[139.7178818,35.6360794],[139.717943,35.6361413],[139.7173182,35.6379566],[139.717048,35.6379368],[139.7166755,35.6379153],[139.7166367,35.6380463],[139.7166249,35.6382093],[139.7168871,35.6382132],[139.7168931,35.638463],[139.7169275,35.6388353],[139.716994,35.6394173],[139.7170224,35.6395943],[139.7170396,35.639675],[139.7167638,35.6399111],[139.7168472,35.639933],[139.7170494,35.6400645],[139.7172541,35.6398881],[139.7178346,35.6400402],[139.7177025,35.6405884],[139.7176856,35.6406937],[139.7193885,35.6412023],[139.7193959,35.6412729],[139.7193232,35.6412969],[139.71929,35.641449],[139.7192538,35.6414595],[139.7192513,35.6414928],[139.7192845,35.641485],[139.7192285,35.641624],[139.7195936,35.6418412],[139.7197425,35.6419411],[139.7199004,35.6420526],[139.7201193,35.6422384],[139.7202359,35.6423507],[139.7203893,35.6425169],[139.7204881,35.6426313],[139.7207104,35.6428887],[139.7208898,35.6431183],[139.7209673,35.6432144],[139.7213835,35.6437286],[139.7210595,35.6438263],[139.7209238,35.643868],[139.7209743,35.6441336],[139.7211528,35.6442297],[139.7212425,35.6442782],[139.7213319,35.6443406],[139.7215062,35.6444514],[139.7215271,35.6444631],[139.7217093,35.644407],[139.7217156,35.6444051],[139.7217441,35.6444528],[139.7219803,35.6443643],[139.7220042,35.6443552],[139.7220503,35.644351],[139.7221697,35.6443733],[139.7222505,35.6443636],[139.7223834,35.644419],[139.7223553,35.6444626],[139.7225275,35.6445482],[139.7225796,35.6445658],[139.7227301,35.6446434],[139.7227061,35.6446971],[139.7227096,35.6447108],[139.7227147,35.6447582],[139.7227275,35.6448524],[139.7227126,35.644859],[139.7227252,35.6449088],[139.7227489,35.6449068],[139.7227543,35.6449414],[139.7228592,35.6449326],[139.7229309,35.6450651],[139.7229627,35.6451817],[139.722983,35.6453071],[139.7228085,35.6455391],[139.7228821,35.6455813],[139.7230358,35.6454421],[139.723147,35.6454949],[139.7231697,35.6458072],[139.7230818,35.6458367],[139.7231597,35.6460057],[139.7232766,35.6461213],[139.7239259,35.6467294],[139.7238873,35.6467549],[139.7237717,35.6468318],[139.7236409,35.646922],[139.7234559,35.6470543],[139.7233605,35.6471226],[139.7232524,35.6472252],[139.7231974,35.6473163],[139.7231789,35.6473763],[139.7231314,35.6473936],[139.7231167,35.6473928],[139.723073,35.6473913],[139.7230556,35.6478385],[139.7228437,35.6478479],[139.7228163,35.6481974],[139.7228053,35.6483539],[139.7227555,35.6487421],[139.7225767,35.6495424],[139.7224472,35.6501166],[139.7223368,35.6506222],[139.722311,35.6507423],[139.7222895,35.6508351],[139.7222719,35.6509401],[139.7222595,35.6510643],[139.7222386,35.6514408],[139.7222299,35.6516688],[139.7222211,35.6519416],[139.7222143,35.6522426],[139.7222082,35.6523414],[139.7219555,35.6523337],[139.7219568,35.65232],[139.7218067,35.6523152],[139.7218039,35.6523649],[139.7216237,35.6523605],[139.7216454,35.6524052],[139.7216565,35.652428],[139.7217063,35.6525129],[139.721782,35.6525705],[139.7218535,35.6525822],[139.7219517,35.6525822],[139.7219721,35.6525959],[139.721869,35.6527158],[139.7218135,35.6528377],[139.7217887,35.6529085],[139.7217371,35.6532706],[139.7217467,35.6534412],[139.7216552,35.6536534],[139.7216972,35.6539176],[139.7218572,35.6541502],[139.7220345,35.6544439],[139.7222282,35.654767],[139.7224208,35.6550862],[139.7225587,35.6553212],[139.7227655,35.6556742],[139.7228959,35.655897],[139.722938,35.6560409],[139.7229674,35.6562939],[139.7229646,35.6563661],[139.7227341,35.6562011],[139.7224859,35.6560207],[139.7222823,35.6558724],[139.7221338,35.6557631],[139.7221115,35.6557538],[139.7220814,35.6557474],[139.7220406,35.6557522],[139.7216797,35.6558643],[139.7215495,35.6559073],[139.7212627,35.6560049],[139.7210375,35.6560802],[139.720656,35.6562089],[139.7204529,35.6562776],[139.720145,35.6563815],[139.7199017,35.6564791],[139.7196686,35.6565733],[139.7193528,35.6566854],[139.7190911,35.6567755],[139.718847,35.6568581],[139.7186091,35.6569392],[139.718461,35.6569909],[139.7183286,35.6570342],[139.7182361,35.657068],[139.7182128,35.6570111],[139.7181586,35.6568817],[139.717999,35.6565573],[139.7179252,35.6564062],[139.7176846,35.6564816],[139.7175119,35.6565373],[139.7173042,35.6566028],[139.7170774,35.6566751],[139.7168402,35.6567509],[139.7165704,35.6568368],[139.7162839,35.6568747],[139.7161171,35.6568957],[139.7157939,35.6569309],[139.7153778,35.6569631],[139.7150592,35.6570416],[139.7145996,35.6572159],[139.7145317,35.6572815],[139.7144295,35.6573529],[139.7141383,35.6575357],[139.714021,35.6576093],[139.7138631,35.6577337],[139.7136488,35.6579357],[139.7135484,35.6580203],[139.7131507,35.6582373],[139.7128643,35.6584016],[139.7126655,35.6585494],[139.7126542,35.6585593],[139.7126193,35.6585899],[139.7128407,35.6586132],[139.7133904,35.6586713],[139.7135666,35.6591297],[139.7137069,35.6593637],[139.7137624,35.6594539],[139.7139706,35.6597439],[139.7139364,35.6597763],[139.7138498,35.6598285],[139.71339,35.660104],[139.7128408,35.6604307],[139.7124434,35.660669],[139.7122946,35.6607507],[139.7121867,35.6608239],[139.7119547,35.6610908],[139.7119769,35.6611729],[139.7118574,35.6612819],[139.7117224,35.6614355],[139.7115519,35.6616295],[139.7112759,35.6619481],[139.7112206,35.6620108],[139.7110273,35.6622192],[139.7108924,35.6623672],[139.7106748,35.6626023],[139.7104442,35.662852],[139.7103619,35.6629441],[139.7103183,35.6629903],[139.7103819,35.6630299],[139.7102979,35.6630864],[139.7101113,35.6632148],[139.7097551,35.6634496],[139.7094296,35.6636724],[139.7090822,35.6639111],[139.7089015,35.6640576],[139.7087439,35.6641822],[139.7089334,35.664385],[139.7091249,35.6645895],[139.7092571,35.6647315],[139.7093514,35.6648355],[139.7094689,35.6649615],[139.7095059,35.6650036],[139.7097023,35.665216],[139.7098927,35.6654059],[139.7101438,35.6656581],[139.7102073,35.6657271],[139.7104235,35.6659653],[139.7105111,35.6660748],[139.7105691,35.6660985],[139.7108453,35.6659621],[139.7111238,35.6663036],[139.711293,35.6664912],[139.7114778,35.6666937],[139.7115806,35.6668113],[139.7116858,35.6669348],[139.7118155,35.6670825],[139.711958,35.6672186],[139.7120841,35.667358],[139.7126112,35.6679411],[139.7127595,35.6681053],[139.7129396,35.6682921],[139.7130275,35.6684024],[139.7131526,35.6685516],[139.7132747,35.6686986],[139.7134639,35.6689252],[139.7136238,35.6691131],[139.7137436,35.6692365],[139.7138511,35.6693451],[139.7139198,35.6694193],[139.7142276,35.6693092],[139.7143479,35.6692587],[139.7144039,35.6692273],[139.7147518,35.6693733],[139.7149022,35.6694607],[139.7150947,35.6696449],[139.7149797,35.6697194],[139.7148013,35.6698355],[139.714595,35.6699703],[139.7143809,35.6701131],[139.7142351,35.6702045],[139.7141563,35.6702567],[139.7140024,35.6703599],[139.7143509,35.6708569],[139.7141176,35.6709154],[139.7141019,35.6711159],[139.7141545,35.6712307],[139.7142338,35.6713395],[139.7142561,35.671379],[139.7142617,35.671403],[139.7142924,35.6714978],[139.7143856,35.6716478],[139.7145625,35.6719194],[139.7143992,35.6719939],[139.714547,35.6722134],[139.7146024,35.6724654],[139.7147724,35.6728119],[139.714837,35.6729487],[139.7150215,35.6728828],[139.7149993,35.6728438],[139.7154338,35.6726883],[139.7153708,35.6725748],[139.7158501,35.672387],[139.7161529,35.6722701],[139.7164769,35.6721508],[139.7165289,35.6722438],[139.7165844,35.6722491],[139.7166705,35.6724212],[139.7166893,35.6724252],[139.7166738,35.6724711],[139.7165515,35.6727004],[139.7164226,35.672942],[139.7163203,35.6731341],[139.7162738,35.6732207],[139.7156144,35.6737672],[139.7153677,35.673792],[139.715071,35.6739095],[139.7151287,35.6740072],[139.7150748,35.674098],[139.7152251,35.6741495],[139.7148522,35.6748986],[139.7141552,35.674821],[139.7140018,35.6747418],[139.7138949,35.6747007],[139.713799,35.674652],[139.7136703,35.674605],[139.7136124,35.6745566],[139.7136009,35.6745188],[139.7133536,35.6745094],[139.7131085,35.6744885],[139.7127607,35.6744328],[139.7126993,35.6744221],[139.7127709,35.6756671],[139.7127667,35.6758076],[139.7127222,35.6763631],[139.7129033,35.6764967],[139.7129438,35.6768012],[139.7129677,35.6769983],[139.7129862,35.677151],[139.7133234,35.6777794],[139.7133724,35.6778801],[139.7133095,35.6779615],[139.7139185,35.679127],[139.7139879,35.6791616],[139.7140058,35.6792271],[139.7140401,35.6797978],[139.7141315,35.6798289],[139.714161,35.6798409],[139.71422,35.6798904],[139.7142465,35.6799503],[139.7143419,35.6801658],[139.7144998,35.6807475],[139.7144384,35.680808],[139.7141194,35.6811222],[139.713753,35.6814831],[139.7137887,35.6815426],[139.7136614,35.6816113],[139.7137063,35.6816839],[139.7136873,35.6816967],[139.7132196,35.6820107],[139.7112711,35.6833385],[139.7100561,35.6837058],[139.7097986,35.683956],[139.7095614,35.6840497],[139.7092935,35.6841888],[139.7092651,35.6841918],[139.7079926,35.6843315],[139.7075528,35.6846161],[139.7072154,35.6846398],[139.7070057,35.6846414],[139.7068541,35.6854617],[139.7068053,35.6861823],[139.706176,35.686842],[139.7055409,35.6878319],[139.7050977,35.6878353],[139.7051283,35.6880205],[139.7050715,35.6880511],[139.7047138,35.6880349],[139.7041427,35.6880136],[139.7037311,35.6880097],[139.7035448,35.6879821],[139.7030652,35.6879074],[139.7028597,35.6878813],[139.7027864,35.6878983],[139.7026878,35.6879465],[139.7026241,35.6880818],[139.7025443,35.6882698],[139.7023335,35.6883729],[139.7019443,35.6883156],[139.7022595,35.6889812],[139.7021537,35.6893449],[139.7020806,35.6893166],[139.7018921,35.6892169],[139.7017498,35.6891487],[139.7016039,35.6891013],[139.7014993,35.6890672],[139.701357,35.6890267],[139.7012542,35.6890129],[139.7012585,35.6889956],[139.7011676,35.6889809],[139.7008834,35.6889388],[139.7005757,35.6888928],[139.7004535,35.6888775],[139.7001396,35.6888404],[139.7000848,35.6888339],[139.6998343,35.6888003],[139.6997273,35.6887736],[139.6998465,35.6884685],[139.6996203,35.6883974],[139.6995072,35.6886749],[139.6991181,35.6885208],[139.6988457,35.6884191],[139.6983921,35.6882561],[139.6978413,35.6880428],[139.6972841,35.68783],[139.6969436,35.6877025],[139.6966433,35.6875637],[139.6963844,35.6874112],[139.6963452,35.6873509],[139.695995,35.6871613],[139.6959197,35.6871553],[139.6958401,35.6871691],[139.6957935,35.6871691],[139.695716,35.6871441],[139.6954624,35.6870407],[139.695376,35.6870029],[139.6949839,35.6868313],[139.694759,35.6867175],[139.6946073,35.6866425],[139.6942699,35.6864168],[139.6941691,35.6863478],[139.6934285,35.6858101],[139.6929543,35.685449],[139.6926105,35.6852017],[139.6923676,35.6850173],[139.6919761,35.6847312],[139.6914265,35.684333],[139.6913119,35.6842512],[139.6910216,35.6840761],[139.6908673,35.6839831],[139.6907856,35.683934],[139.6898722,35.6833559],[139.6888314,35.6826234],[139.6884919,35.6824028],[139.6883256,35.6822951],[139.6874409,35.6817221],[139.685819,35.6834756],[139.6859299,35.6835418],[139.6859372,35.6836101],[139.6857046,35.6840855],[139.6856943,35.6841018],[139.6856589,35.6841574],[139.6854939,35.6845429],[139.685428,35.6845877],[139.6852493,35.6848992],[139.6849771,35.6853901],[139.6848811,35.685573],[139.684825,35.6857393],[139.684773,35.6858593],[139.6847222,35.686157],[139.6846841,35.6863337],[139.6850728,35.6864038],[139.6855896,35.6864415],[139.6856258,35.6864933],[139.6855031,35.6871819],[139.6855219,35.6872144],[139.6855684,35.6872415],[139.6857965,35.687309],[139.6858158,35.6873302],[139.6858158,35.6873606],[139.6857502,35.6876421],[139.6857389,35.6877652],[139.6845172,35.6875404],[139.6840322,35.687429],[139.6839125,35.6875335],[139.6837624,35.6876761],[139.6837047,35.6877356],[139.6835225,35.6878989],[139.6834295,35.6879942],[139.6834321,35.6881361],[139.6833205,35.6883276],[139.6833227,35.688482],[139.6831576,35.6886289],[139.6833095,35.6889647],[139.6833385,35.68903],[139.6833739,35.6890687],[139.6832869,35.6890791],[139.683306,35.6891851],[139.6833778,35.6891782],[139.6834523,35.689423],[139.6838606,35.6896052],[139.6836974,35.6898604],[139.6837457,35.6899705],[139.6838589,35.6900222],[139.683962,35.6900532],[139.6840697,35.69021],[139.6842257,35.6904272],[139.6843263,35.6905289],[139.6843672,35.690519],[139.6844393,35.6906929],[139.6846693,35.6909952],[139.6847741,35.6911551],[139.6848074,35.6912271],[139.6848495,35.6913539],[139.6848679,35.6914403],[139.6845157,35.691631],[139.6842244,35.6918052],[139.6844495,35.6919944],[139.6844808,35.6920261],[139.6844896,35.6920859],[139.6844768,35.6921567],[139.6842212,35.6921396],[139.6839439,35.6921088],[139.6837409,35.6921123],[139.6836411,35.6923402],[139.6835793,35.6924946],[139.6835427,35.6925661],[139.6837532,35.6926522],[139.6841025,35.6928425],[139.6844229,35.6930826],[139.6847624,35.6933791],[139.6850136,35.693602],[139.6851684,35.6937582],[139.6853987,35.6939927],[139.6855298,35.6942216],[139.6855856,35.6943238],[139.6856734,35.6944898],[139.6857372,35.6946146],[139.6858713,35.6948789],[139.6860136,35.6951663],[139.6861029,35.695347],[139.6861914,35.6955245],[139.6862699,35.6956822],[139.6863721,35.6958768],[139.6864578,35.6960422],[139.6865517,35.6962195],[139.6866132,35.6963504],[139.6866295,35.6963858],[139.6867394,35.6966154],[139.6868838,35.6968838],[139.6870334,35.6971716],[139.687138,35.6973273],[139.6872296,35.697464],[139.6873533,35.6976151],[139.6874472,35.6977301],[139.6875578,35.6978405],[139.6877806,35.6980595],[139.6878615,35.6981546],[139.68801,35.698332],[139.6881995,35.6986537],[139.6882339,35.6987541],[139.688305,35.6989571],[139.6883575,35.6991466],[139.6883663,35.6992456],[139.6883859,35.6994597],[139.6883833,35.6995472],[139.6883749,35.6998372],[139.6882746,35.7002198],[139.6882285,35.7003258],[139.6881063,35.7006026],[139.6879264,35.7008879],[139.6877106,35.7012247],[139.6875258,35.7015072],[139.6875021,35.7016071],[139.6874981,35.7016231],[139.6874583,35.7017825],[139.6874476,35.7018263],[139.6874338,35.7020397],[139.6874115,35.7024719],[139.6874046,35.7028253],[139.6874121,35.7029228],[139.6874734,35.703716],[139.6875167,35.7042646],[139.6875397,35.704369],[139.6876271,35.7047627],[139.6877047,35.7050197],[139.6878607,35.7055177],[139.6879788,35.7058492],[139.68804,35.7060571],[139.6880503,35.7060901],[139.6882599,35.7067643],[139.6883083,35.7069257],[139.6884553,35.7071757],[139.688613,35.7073491],[139.6888145,35.7074827],[139.6890772,35.7076206],[139.6893046,35.7077313],[139.6896051,35.7078766],[139.6899678,35.708057],[139.6903614,35.7082564],[139.6906962,35.7084261],[139.6908626,35.708523],[139.6911953,35.7087146],[139.6913985,35.7088786],[139.6916093,35.7090479],[139.6918315,35.7092265],[139.6919857,35.709306],[139.6922015,35.709389],[139.6923772,35.7094353],[139.6927275,35.7095096],[139.6931081,35.7096768],[139.6933118,35.7098262],[139.6933482,35.7098585],[139.6933971,35.7099006],[139.6936379,35.7101166],[139.6938031,35.7102679],[139.693862,35.7103412],[139.6939894,35.7104984],[139.6940645,35.7106195],[139.6941529,35.7107615],[139.6941785,35.7108126],[139.6942608,35.7109766],[139.6942731,35.7110004],[139.6942858,35.7110266],[139.6941477,35.711039],[139.6927089,35.7111683],[139.6926959,35.711147],[139.6926878,35.7109641],[139.6926758,35.710888],[139.692654,35.7108024],[139.6925367,35.7105834],[139.6923324,35.7107122],[139.6922133,35.7107677],[139.6921726,35.710788],[139.6919345,35.7108833],[139.6915467,35.7110328],[139.6914065,35.7107413],[139.6911832,35.7107931],[139.6911107,35.7104896],[139.690937,35.7105341],[139.6902092,35.7107399],[139.6900675,35.7107933],[139.6900522,35.710821],[139.6900752,35.7109635],[139.6901322,35.7113007],[139.6896076,35.7112718],[139.689023,35.7112415],[139.6886042,35.711212],[139.6883458,35.7111935],[139.6881674,35.7111708],[139.6879696,35.7111375],[139.6874079,35.7110126],[139.6872727,35.7109771],[139.6865936,35.7108104],[139.6850625,35.7104482],[139.6847227,35.7103711],[139.6846085,35.7103489],[139.6844796,35.710325],[139.6843647,35.7102996],[139.683778,35.7101876],[139.6827623,35.710007],[139.6827458,35.710053],[139.6826756,35.7100997],[139.6820084,35.7105584],[139.6818717,35.7106753],[139.6818241,35.7107319],[139.6818005,35.7107533],[139.6817732,35.7107758],[139.6812261,35.7109713],[139.6811374,35.7110024],[139.6809775,35.7110547],[139.6806648,35.7111102],[139.6806375,35.7111115],[139.6805227,35.711107],[139.6804489,35.7110932],[139.6803766,35.711068],[139.6803067,35.7110578],[139.6802064,35.71104],[139.6801247,35.7110383],[139.680028,35.7110527],[139.6800234,35.7113291],[139.6800765,35.7113685],[139.6801409,35.7114032],[139.680329,35.7114241],[139.680551,35.7114423],[139.6807503,35.71159],[139.6807887,35.7116683],[139.6808585,35.7117187],[139.6808715,35.7117447],[139.6808562,35.7117695],[139.6808241,35.7118076],[139.6808039,35.7118538],[139.6808328,35.7119221],[139.6809942,35.7120657],[139.681176,35.7121182],[139.6812192,35.7121519],[139.681269,35.712219],[139.6813528,35.7123419],[139.6814771,35.7124237],[139.6815259,35.7125],[139.6815968,35.7125782],[139.6816897,35.7126822],[139.6817618,35.7127507],[139.6818055,35.7128252],[139.6818599,35.7128831],[139.681953,35.7129663],[139.6819747,35.7129983],[139.6819923,35.7130335],[139.6820106,35.7131194],[139.6820177,35.7131999],[139.682025,35.7133015],[139.6817545,35.7133133],[139.681663,35.7133341],[139.6815043,35.7133238],[139.6813639,35.7132972],[139.6813011,35.71323],[139.6811292,35.7132686],[139.6809926,35.7132659],[139.680993,35.7134689],[139.6810777,35.7134886],[139.6810649,35.7136908],[139.6812595,35.7137579],[139.6815653,35.7138483],[139.681866,35.7139184],[139.681841,35.7141315],[139.6813713,35.7140753],[139.6811545,35.7140494],[139.6809336,35.7140336],[139.6808072,35.7140244],[139.6808076,35.7140824],[139.6808651,35.7145034],[139.6802953,35.7145747],[139.6800176,35.714245],[139.6799589,35.7141673],[139.6797583,35.7142792],[139.6796198,35.7143643],[139.6794009,35.7145352],[139.679299,35.7146143],[139.6791844,35.7147709],[139.6791173,35.7148866],[139.6790907,35.7149792],[139.6790641,35.7150848],[139.679062,35.7151375],[139.6790644,35.7152171],[139.6790808,35.7152879],[139.6791144,35.7154139],[139.6791285,35.7154916],[139.6791414,35.7155629],[139.6791602,35.7156671],[139.6792479,35.7156575],[139.6793693,35.7159433],[139.6794574,35.7161293],[139.6795241,35.7162634],[139.6795344,35.7163297],[139.6795175,35.7164559],[139.679503,35.7164907],[139.6794816,35.7165251],[139.6793312,35.7166759],[139.6792225,35.7166419],[139.679052,35.7169535],[139.6791346,35.7169806],[139.6790844,35.717117],[139.6790801,35.7171286],[139.678966,35.7175053],[139.6789295,35.7176558],[139.6789146,35.7177378],[139.6789102,35.7179206],[139.6789119,35.7179771],[139.6789165,35.7181307],[139.6789046,35.7181366],[139.6787962,35.7181697],[139.6786105,35.7181675],[139.6785263,35.7181676],[139.6783271,35.7181651],[139.6781771,35.718413],[139.6776438,35.7189166],[139.6771839,35.7193427],[139.6768261,35.7195588],[139.6766472,35.7196226],[139.6764287,35.7196734],[139.6763691,35.7194718],[139.6762276,35.7195095],[139.6756557,35.7196449],[139.6757114,35.7197961],[139.6755875,35.7198529],[139.6756237,35.7199042],[139.6754386,35.7199997],[139.675303,35.7200376],[139.6752621,35.7199579],[139.6752164,35.7198562],[139.6751929,35.7195463],[139.675188,35.7194593],[139.6752022,35.7193627],[139.6752839,35.7190845],[139.6734446,35.7184841],[139.6734181,35.7187856],[139.6737827,35.719273],[139.6735351,35.7195176],[139.6732748,35.7196639],[139.6732832,35.7196972],[139.6734933,35.7204464],[139.6735391,35.7206143],[139.6735925,35.7206107],[139.6736975,35.7205735],[139.6738744,35.7205046],[139.6741122,35.7204674],[139.6743434,35.720423],[139.6743733,35.7204989],[139.674409,35.7206594],[139.6744816,35.7206547],[139.6745682,35.7213766],[139.6757121,35.7213751],[139.6758378,35.7220266],[139.6758336,35.7221965],[139.67582,35.7223016],[139.6757902,35.7224181],[139.6757073,35.7226622],[139.6756231,35.7229298],[139.6754707,35.7234215],[139.6754124,35.7236315],[139.6753535,35.7239007],[139.6753461,35.7241519],[139.6754529,35.7245395],[139.6755999,35.7251451],[139.6756411,35.7253057],[139.6757039,35.7255911],[139.6757605,35.7258551],[139.6759019,35.7260886],[139.6761281,35.7264537],[139.6763281,35.7267708],[139.6764805,35.7270133],[139.6765645,35.7272088],[139.6766046,35.7273113],[139.6767582,35.7277121],[139.6767394,35.7283056],[139.6767388,35.7286286],[139.6767846,35.7292308],[139.676797,35.7295265],[139.6768171,35.7299039],[139.6773046,35.7296689],[139.6775274,35.7295612],[139.6776569,35.7294985],[139.6780328,35.7292765],[139.6786994,35.7288914],[139.6791044,35.7286652],[139.6793661,35.7285155],[139.6793228,35.7284846],[139.6792852,35.7284511],[139.679266,35.7284424],[139.679407,35.7282301],[139.6799131,35.7279763],[139.6800934,35.7278834],[139.6804597,35.7276947],[139.6806287,35.7276062],[139.6806258,35.7276437],[139.6807143,35.7277559],[139.6810335,35.7275321],[139.6812115,35.7273923],[139.6813407,35.7272635],[139.6814181,35.7271791],[139.6814619,35.7271181],[139.6814813,35.726947],[139.6815337,35.7268754],[139.6816591,35.7266871],[139.68148,35.7266632],[139.6815322,35.7264395],[139.6817442,35.7264703],[139.6817707,35.726371],[139.6816448,35.7263428],[139.6817285,35.7260246],[139.6817311,35.7260147],[139.6818207,35.7255535],[139.6818199,35.7254899],[139.6818439,35.7254118],[139.6818641,35.7253625],[139.6819228,35.7252466],[139.6819192,35.7252329],[139.6819097,35.7251973],[139.6819068,35.7251227],[139.6819116,35.7250534],[139.6819386,35.7249517],[139.681977,35.7248691],[139.6820803,35.7247614],[139.6821013,35.724707],[139.6821987,35.7247146],[139.6822185,35.7247195],[139.6822895,35.7245555],[139.6819373,35.7245105],[139.6821955,35.7238877],[139.6825832,35.7240029],[139.6827121,35.7237485],[139.6828958,35.7237922],[139.6829884,35.723576],[139.6831703,35.7236071],[139.6832648,35.7236318],[139.6833825,35.7236511],[139.6836503,35.7236987],[139.6839124,35.7237336],[139.6842125,35.7237629],[139.6843335,35.7232752],[139.6843577,35.723129],[139.6843665,35.722983],[139.6843679,35.7228872],[139.6843949,35.7226885],[139.6846409,35.7227164],[139.6850596,35.7227548],[139.6856046,35.7228245],[139.6860625,35.7228791],[139.6860817,35.7228814],[139.6863301,35.7228833],[139.6866192,35.7228799],[139.6871086,35.7228631],[139.6876985,35.7228515],[139.6886721,35.7228353],[139.6892913,35.7228211],[139.6895334,35.7228151],[139.6895515,35.7228145],[139.6896761,35.7228106],[139.6900178,35.7227806],[139.6907559,35.7227042],[139.6910724,35.7226758],[139.6916805,35.7226161],[139.692223,35.7225621],[139.6924378,35.7225373],[139.6925988,35.7225189],[139.6932167,35.7224655],[139.6938288,35.7224212],[139.6939654,35.7224067],[139.6940469,35.7223917],[139.6941469,35.7223635],[139.6942548,35.7223185],[139.6946011,35.722186],[139.6946483,35.7222728],[139.6947044,35.7223933],[139.6952546,35.7222458],[139.6952242,35.7221481],[139.6953005,35.7221358],[139.6953068,35.7221515],[139.6955213,35.7221396],[139.6955195,35.7221159],[139.6957341,35.7221051],[139.6957351,35.7220781],[139.6958236,35.722078],[139.6958255,35.7221486],[139.6960499,35.722147],[139.6960489,35.7222583],[139.6964529,35.7222631],[139.6964561,35.722124],[139.6965933,35.7221243],[139.696593,35.7221808],[139.6969681,35.7221741],[139.6969672,35.7221473],[139.6973053,35.7221458],[139.697312,35.7221003],[139.6975371,35.7221098],[139.6977139,35.7221384],[139.6979717,35.7221918],[139.6979704,35.7221302],[139.6980619,35.7221496],[139.6981994,35.7221969],[139.6983915,35.7222854],[139.6985005,35.7223199],[139.6985364,35.7223312],[139.6986634,35.7223924],[139.6987791,35.7224973],[139.6989588,35.7225977],[139.698893,35.722708],[139.6989729,35.7227469],[139.6990364,35.7226479],[139.6991501,35.7226956],[139.6991371,35.7227244],[139.6991755,35.722739],[139.6993962,35.7227738],[139.6995097,35.7227852],[139.699523,35.7228247],[139.6995706,35.7229478],[139.6996708,35.7230779],[139.699733,35.7231771],[139.6998376,35.7233618],[139.6999097,35.7234956],[139.7001236,35.7234446],[139.7002374,35.7234256],[139.7003579,35.7234218],[139.7005418,35.7234311],[139.700898,35.7234518],[139.701665,35.7233912],[139.7023844,35.7233349],[139.7027345,35.7232781],[139.7028399,35.7232612],[139.7031491,35.7232115],[139.7036088,35.723125],[139.7038464,35.7230637],[139.704233,35.7229487],[139.7045788,35.722841],[139.704689,35.7227916],[139.7046431,35.7227192],[139.7046109,35.722689],[139.7045002,35.7225928],[139.7044387,35.7225066],[139.7043635,35.722386],[139.7043181,35.7223009],[139.7043045,35.7222158],[139.7044554,35.7222047],[139.7046938,35.7220197],[139.705032,35.7218004],[139.7050876,35.7217698],[139.7054655,35.7216215],[139.7058247,35.7214791],[139.7057326,35.7213509],[139.7055873,35.7212291],[139.7054136,35.721067],[139.7051179,35.7207991],[139.7050686,35.7208232],[139.7050184,35.7207924],[139.7049268,35.7208395],[139.7047205,35.7208565],[139.7047036,35.7206868],[139.7047958,35.7206763],[139.7048674,35.7205474],[139.7047059,35.7202702],[139.7045287,35.7201327],[139.7049017,35.7197769],[139.7050334,35.7194931],[139.7051056,35.7193085],[139.7051617,35.7191853],[139.705232,35.7190862],[139.705315,35.7189909],[139.7054506,35.7188774],[139.7055418,35.7188065],[139.7057707,35.7185699],[139.7054841,35.7177164],[139.7056769,35.7176794],[139.7056605,35.7174132],[139.705549,35.7172312],[139.7055492,35.7171631],[139.7056373,35.7169836],[139.7056504,35.7166613],[139.7055384,35.7166613],[139.7055387,35.7167452],[139.7053903,35.7167815],[139.7053114,35.7165568],[139.7054919,35.7165529],[139.7054826,35.7163327],[139.7054176,35.7163345],[139.7047469,35.7164672],[139.7046376,35.7161358],[139.7041864,35.7147668],[139.7043087,35.7147319],[139.704569,35.7146721],[139.7049988,35.7146867],[139.7052837,35.7146447],[139.7053968,35.7145447],[139.7054992,35.7145155],[139.7055799,35.7144728],[139.7055526,35.7143362],[139.7056987,35.7143226],[139.7056677,35.7141326],[139.705793,35.7141205],[139.7057807,35.7140251],[139.7052517,35.7140785],[139.7052181,35.713906],[139.7058725,35.7138317],[139.7058658,35.7137661],[139.7058047,35.7136207],[139.7060543,35.7135285],[139.7062445,35.7135269],[139.7063478,35.7135261],[139.7063831,35.7135326],[139.706534,35.7135613],[139.7067964,35.7136106],[139.7068726,35.7136187],[139.7070171,35.7136188],[139.7070233,35.7137021],[139.7073692,35.7136954],[139.7073697,35.7137273],[139.7075136,35.7137268],[139.7075164,35.7137644],[139.7075179,35.7138435],[139.7077855,35.7138178],[139.7079246,35.7138065],[139.7080833,35.713812],[139.7085351,35.7138329],[139.7089525,35.7138547],[139.7091822,35.7138767],[139.7094314,35.7139217],[139.7094947,35.7137626],[139.7096211,35.7137619],[139.7098017,35.7137526],[139.7098041,35.7136503],[139.7098775,35.7136501],[139.7098832,35.7136708],[139.7100256,35.713619],[139.7100163,35.7135698],[139.7101231,35.7135656],[139.7101537,35.7136732],[139.7101959,35.7136657],[139.7101731,35.7135839],[139.7103079,35.7135613],[139.7104109,35.7136964],[139.7105152,35.7138951],[139.7105493,35.713956],[139.7107763,35.7142224],[139.7109805,35.714448],[139.7110813,35.7145401],[139.71136,35.7147183],[139.7113954,35.7147262],[139.7114838,35.7147933],[139.7115747,35.7147947],[139.7116705,35.7147961],[139.7119461,35.714801],[139.7122594,35.7146769],[139.7125786,35.7144485],[139.7128835,35.7142035],[139.7133215,35.7138455],[139.7134525,35.7137385],[139.7137313,35.7135325],[139.7138196,35.7134676],[139.7142676,35.7132743],[139.7142772,35.7132702],[139.7146487,35.7131101],[139.7148658,35.7130733],[139.7148952,35.7131847],[139.71509,35.7131476],[139.7154987,35.713127],[139.7156678,35.713473],[139.715746,35.7136491],[139.7160666,35.7135848],[139.716243,35.713535],[139.716391,35.7134859],[139.7165064,35.7134099],[139.7166161,35.7132798],[139.7166832,35.7131102],[139.7167639,35.7129786],[139.7170336,35.7129571],[139.7171088,35.7129507],[139.7173482,35.7129171],[139.7175583,35.712888],[139.7176434,35.7128766],[139.7178639,35.7128319],[139.7181464,35.7127635],[139.7180829,35.7125836],[139.7184064,35.7125042],[139.7184658,35.7126849],[139.7187172,35.7126231],[139.719208,35.7125041],[139.7192969,35.7124822],[139.7193867,35.7126595],[139.7193372,35.7126771],[139.7193771,35.712758],[139.7193994,35.7128014],[139.719453,35.7127878],[139.7194856,35.7128573],[139.7195165,35.7128845],[139.7195441,35.7129314],[139.7195729,35.7129765],[139.7196067,35.713019],[139.7197443,35.7129609],[139.719783,35.7129289],[139.719921,35.7128848],[139.7199059,35.7127651],[139.7198763,35.7125386],[139.719757,35.7125524],[139.7197332,35.7124582],[139.7198647,35.7123077],[139.7201272,35.7122973],[139.720247,35.7123006],[139.7202295,35.7124143],[139.7203653,35.7124287],[139.7203385,35.7125569],[139.7204257,35.7126297],[139.7205293,35.7128507],[139.7207286,35.7127962],[139.7207322,35.7128091],[139.7208369,35.7127972],[139.7208282,35.712724],[139.7206907,35.7127329],[139.7206757,35.7126945],[139.7206135,35.7127127],[139.7205422,35.7125682],[139.7206643,35.7125789],[139.7206615,35.7125945],[139.7208169,35.7126214],[139.7208568,35.7124824],[139.7209475,35.7125038],[139.7211303,35.7124636],[139.7213269,35.7125094],[139.7215463,35.7125316],[139.7217497,35.7125308],[139.7219153,35.7125121],[139.7220563,35.7124827],[139.7221,35.7126215],[139.7217607,35.712804],[139.721462,35.7129997],[139.7214071,35.7130358],[139.7212692,35.7131265],[139.7212037,35.7131675],[139.7207593,35.7134334],[139.7206768,35.7134737],[139.7203417,35.7136383],[139.7202951,35.7136605],[139.7200576,35.7137491],[139.719663,35.7138952],[139.7193155,35.7140263],[139.7189126,35.7141521],[139.7187176,35.7141992],[139.7184278,35.7142449],[139.717964,35.714291],[139.7177656,35.7143234],[139.7176583,35.7143432],[139.7174348,35.7144596],[139.7172608,35.7146099],[139.7173327,35.7149808],[139.7173721,35.7152362],[139.7174139,35.7154817],[139.7174328,35.7155824],[139.7174455,35.7156203],[139.717563,35.7159072],[139.7176728,35.71617],[139.7177403,35.7164537],[139.7177562,35.7166714],[139.7179628,35.7169463],[139.7178124,35.7170109],[139.7178583,35.7171086],[139.7178772,35.7171369],[139.7178855,35.7171733],[139.7178574,35.7172198],[139.7178387,35.7172404],[139.7177349,35.7173553],[139.7179525,35.71759],[139.718071,35.7177178],[139.7182702,35.7179631],[139.7185633,35.7178276],[139.7187374,35.7177476],[139.719038,35.7176214],[139.7191564,35.7175708],[139.719271,35.7175195],[139.7193912,35.717696],[139.7194594,35.7179004],[139.7194905,35.7179795],[139.7194905,35.7180468],[139.7194667,35.7180901],[139.7195251,35.7181877],[139.7195515,35.7183265],[139.7197137,35.7182895],[139.7198172,35.7182559],[139.7199202,35.7182736],[139.7208215,35.7184398],[139.7209046,35.7185372],[139.7210627,35.7184803],[139.721441,35.7185469],[139.7215627,35.7186085],[139.7216599,35.7186892],[139.7215363,35.7188294],[139.7217873,35.7189229],[139.7218738,35.7188188],[139.721994,35.718861],[139.7221165,35.7186775],[139.7223531,35.7187824],[139.7227761,35.7189351],[139.7228858,35.7190548],[139.7229324,35.7190325],[139.7230027,35.7191208],[139.7230172,35.7191801],[139.7229902,35.7191974],[139.7229942,35.7193163],[139.7230375,35.719417],[139.7230445,35.7195212],[139.722994,35.7196607],[139.7231082,35.7197465],[139.7238462,35.7199596],[139.7241629,35.7200508],[139.7242337,35.7199682],[139.7243198,35.7198715],[139.7244395,35.719772],[139.7245052,35.7197193],[139.7246724,35.7196257],[139.724832,35.7195759],[139.7249743,35.7197177],[139.7250465,35.7197854],[139.7248792,35.7198186],[139.7247874,35.7198637],[139.7248135,35.7199651],[139.7247305,35.7200216],[139.7245693,35.7201466],[139.724463,35.72025],[139.7244089,35.7203198],[139.7242401,35.7206385],[139.7241723,35.7207438],[139.7240231,35.7210472],[139.723961,35.7211727],[139.7238163,35.7214234],[139.7237562,35.7216038],[139.7237361,35.7218784],[139.7237243,35.7220255],[139.7236416,35.7221173],[139.7232293,35.7222976],[139.723198,35.7224333],[139.7231557,35.7226745],[139.7231249,35.7229037],[139.7230988,35.723049],[139.723086,35.7230963],[139.7230699,35.7231547],[139.723032,35.723261],[139.7229959,35.7233415],[139.7230307,35.7233776],[139.7230554,35.7234034],[139.7230773,35.7235945],[139.7230621,35.7238187],[139.7230341,35.7241881],[139.7230253,35.7243009],[139.7230088,35.7243294],[139.7229796,35.7243695],[139.7229332,35.7245105],[139.722855,35.7246995],[139.722823,35.7247759],[139.7227943,35.7248297],[139.7227521,35.7249015],[139.7226783,35.7250288],[139.7229446,35.7251087],[139.7231068,35.7251507],[139.7234099,35.7252181],[139.7236414,35.7252709],[139.7239102,35.725326],[139.7240417,35.7253536],[139.724425,35.7254269],[139.7244104,35.7255989],[139.7243907,35.7259391],[139.7243843,35.7260529],[139.7246367,35.7260772],[139.724782,35.7260827],[139.7248052,35.7260718],[139.7249508,35.726072],[139.7251186,35.7260729],[139.7252099,35.7260761],[139.7253627,35.7260961],[139.725325,35.7263207],[139.7251151,35.726299],[139.7248845,35.7262963],[139.7248069,35.7263202],[139.72475,35.7263463],[139.7246928,35.7263917],[139.7246791,35.7264628],[139.7246751,35.7265866],[139.7246801,35.7266623],[139.7248067,35.7266606],[139.7248158,35.7265496],[139.7249121,35.726556],[139.7249171,35.7266469],[139.7249294,35.7267689],[139.725122,35.7267112],[139.7249924,35.7264845],[139.7252257,35.7265393],[139.7253853,35.7265418],[139.7254017,35.7266967],[139.7255081,35.7266935],[139.7255899,35.7267993],[139.7260096,35.7265843],[139.7261706,35.7265085],[139.7262267,35.7266417],[139.726255,35.7267434],[139.7263082,35.7269128],[139.7263585,35.7270674],[139.7266288,35.7269604],[139.7266426,35.7269905],[139.7268015,35.7269304],[139.7268764,35.7269003],[139.7269926,35.7268577],[139.7271259,35.7268172],[139.7272651,35.7267695],[139.727387,35.7267167],[139.7274801,35.7266717],[139.7275644,35.7266124],[139.7276512,35.7265569],[139.7277535,35.7265103],[139.7278798,35.726454],[139.7279867,35.7263867],[139.7280708,35.7263411],[139.7282027,35.7262637],[139.728319,35.7261412],[139.7283844,35.7260835],[139.7284804,35.7259742],[139.7285165,35.725934],[139.7287338,35.7258258],[139.7287439,35.7257386],[139.7288251,35.7257173],[139.7289403,35.7256764],[139.7291774,35.7255928],[139.7293416,35.7255422],[139.7294164,35.7256494],[139.7294711,35.7257224],[139.7295946,35.7258804],[139.729681,35.72597],[139.7294846,35.7260961],[139.7295497,35.7261494],[139.7295848,35.7261782],[139.7296211,35.7262085],[139.729832,35.7262372],[139.7299109,35.7262653],[139.7300018,35.7260698],[139.7300545,35.7259607],[139.7302757,35.7260219],[139.7303355,35.7258982],[139.7303904,35.7257784],[139.7302584,35.7257045],[139.7302207,35.7256865],[139.7301909,35.7256751],[139.7302249,35.7256476],[139.7303692,35.7255422],[139.7305176,35.725432],[139.7305716,35.7252373],[139.730593,35.7251745],[139.7306045,35.7251758],[139.7307236,35.7249479],[139.7307597,35.7249351],[139.7308054,35.7248776],[139.7309312,35.7248766],[139.7310571,35.7245748],[139.7311271,35.7244722],[139.7311504,35.7243706],[139.731396,35.7242533],[139.7316906,35.7242532],[139.7319632,35.7241055],[139.7324163,35.7242528],[139.7324124,35.7243472],[139.7324003,35.724384],[139.7321955,35.7246585],[139.7325126,35.7247005],[139.7325976,35.7246893],[139.7329151,35.7247978],[139.732832,35.7249862],[139.7327192,35.72519],[139.7330144,35.7253445],[139.7330546,35.725293],[139.7331194,35.7252127],[139.7331634,35.7251592],[139.7333101,35.7250458],[139.7333547,35.725041],[139.7336236,35.7251885],[139.7336264,35.725216],[139.7335831,35.7252685],[139.7335774,35.7253321],[139.7337681,35.7254232],[139.7340032,35.7255207],[139.734073,35.7254284],[139.734156,35.7253195],[139.734189,35.7252773],[139.7342705,35.7251699],[139.734474,35.7252718],[139.7346053,35.7251075],[139.7350151,35.7253161],[139.7351159,35.7251823],[139.7353037,35.7252776],[139.7355788,35.7249292],[139.7358221,35.7250575],[139.7361014,35.7252075],[139.7360431,35.7253009],[139.7360048,35.7253634],[139.7359516,35.72553],[139.7359145,35.7255944],[139.7358451,35.7256482],[139.7356604,35.7257654],[139.7353908,35.7260427],[139.7353617,35.7260662],[139.7354987,35.726117],[139.7356811,35.7261848],[139.7359869,35.7263041],[139.7362602,35.7264105],[139.7365235,35.7265095],[139.7369612,35.7266759],[139.7371146,35.7267345],[139.7374406,35.7268581],[139.7374092,35.7269191],[139.7372488,35.7272296],[139.7369093,35.7271063],[139.7367708,35.7273574],[139.7368572,35.7274027],[139.7370653,35.727513],[139.7371413,35.7275562],[139.7370761,35.7276408],[139.7370521,35.7276953],[139.736952,35.7278401],[139.7369583,35.7278551],[139.7368814,35.7279867],[139.7368629,35.7280184],[139.7368559,35.728036],[139.7368056,35.7281162],[139.7367082,35.7281941],[139.7366187,35.7282657],[139.7365136,35.7283498],[139.73647,35.7283846],[139.7363863,35.728471],[139.736321,35.7285386],[139.7362348,35.7286272],[139.73622,35.7286426],[139.736185,35.7287243],[139.7360747,35.7288338],[139.7360389,35.7288696],[139.7359526,35.7288739],[139.7358233,35.7289624],[139.7357239,35.7290317],[139.7356737,35.7290798],[139.7354987,35.7292469],[139.7355885,35.7293099],[139.735633,35.729341],[139.7358533,35.7295119],[139.7359831,35.7296117],[139.7360626,35.7296654],[139.7361038,35.7296879],[139.7362233,35.7297784],[139.7363505,35.7298734],[139.7364799,35.7299765],[139.7365929,35.7300668],[139.7366861,35.7301412],[139.7367403,35.7301843],[139.7367278,35.7301949],[139.7366064,35.7302928],[139.7365756,35.730318],[139.7364635,35.730456],[139.7364211,35.7305165],[139.7365441,35.7305684],[139.7366765,35.7306245],[139.7369567,35.7307569],[139.7370662,35.7308071],[139.7372482,35.7308859],[139.7375684,35.7310302],[139.7377149,35.7311418],[139.7379215,35.7312961],[139.7381687,35.7314771],[139.7384096,35.7316631],[139.7386211,35.7318267],[139.7386499,35.7318771],[139.738802,35.7319846],[139.7389518,35.7318418],[139.7390923,35.7317112],[139.7391585,35.7316486],[139.7391998,35.7316855],[139.7392598,35.7316337],[139.739414,35.7315026],[139.7395423,35.7313943],[139.7397172,35.7312455],[139.7399946,35.7310094],[139.740347,35.7306443],[139.7404271,35.7305629],[139.7406518,35.730335],[139.7407642,35.7302207],[139.74082,35.7302532],[139.741,35.73036],[139.7411031,35.7304225],[139.7413841,35.7305744],[139.7416181,35.7307023],[139.7416971,35.730747],[139.7412741,35.7311556],[139.741363,35.731221],[139.7414563,35.731292],[139.7415609,35.7313612],[139.7417447,35.7314866],[139.7420525,35.7317058],[139.742233,35.7318336],[139.7425872,35.7320864],[139.7428918,35.7323069],[139.7433093,35.7326097],[139.7434286,35.7326968],[139.7433292,35.7327848],[139.7431854,35.7329163],[139.7433632,35.7330376],[139.7432715,35.7331198],[139.7432716,35.7331591],[139.7431398,35.7332484],[139.7430621,35.7332629],[139.7429524,35.7333443],[139.7428854,35.7333478],[139.7426827,35.7334947],[139.7425721,35.7333979],[139.7423231,35.7335579],[139.7430429,35.7347149],[139.7433313,35.7346139],[139.7433972,35.7346813],[139.7435893,35.7348791],[139.7441075,35.7350888],[139.7444448,35.7355321],[139.7452514,35.7358052],[139.745292,35.7359098],[139.7456953,35.7357366],[139.7460525,35.7355562],[139.7462308,35.7354698],[139.746672,35.7352563],[139.7468647,35.7351623],[139.7469415,35.7352094],[139.7472426,35.7353575],[139.7473716,35.735152],[139.747469,35.735193],[139.7475104,35.7351289],[139.7476127,35.735172],[139.7477708,35.7349142],[139.7476929,35.7348775],[139.7477477,35.7347851],[139.7477738,35.7347942],[139.7478319,35.7347155],[139.7477105,35.7346575],[139.7476787,35.7347012],[139.7474432,35.7345976],[139.747843,35.7340404],[139.7482421,35.7334866],[139.7484803,35.7337511],[139.748574,35.7336244],[139.7486272,35.7336483],[139.7486979,35.7335603],[139.7487752,35.7334508],[139.7489311,35.7335303],[139.7490385,35.7333986],[139.7485554,35.733076],[139.7485933,35.7330344],[139.7487538,35.7331348],[139.74888,35.7329867],[139.749054,35.7330779],[139.7491482,35.7329716],[139.7489383,35.7328566],[139.7489529,35.7328321],[139.7491801,35.7329534],[139.7492575,35.7328575],[139.7494113,35.732937],[139.7493977,35.7329557],[139.7494311,35.7329743],[139.7495504,35.7330421],[139.7495178,35.7330814],[139.7496712,35.7331625],[139.7496386,35.7332064],[139.7497701,35.73327],[139.7498298,35.7332003],[139.7498759,35.7332276],[139.7499364,35.7332594],[139.7498897,35.7333131],[139.7499737,35.7333631],[139.7500203,35.7333169],[139.750302,35.7334781],[139.7501991,35.7335607],[139.7504311,35.7337553],[139.7505318,35.7338388],[139.7506244,35.7339454],[139.7506043,35.7340991],[139.7504768,35.7340963],[139.7501863,35.7342388],[139.7503093,35.7342644],[139.7503047,35.7343771],[139.7509113,35.7344308],[139.7508943,35.7346694],[139.7513828,35.7348063],[139.7514563,35.7347736],[139.7515126,35.7347441],[139.7516557,35.7348873],[139.7517204,35.7349589],[139.7519329,35.7350322],[139.7520317,35.7350664],[139.7521463,35.735097],[139.7522006,35.7351287],[139.7525896,35.7352477],[139.7526568,35.7352683],[139.7526838,35.7352491],[139.7528409,35.735212],[139.752923,35.7351711],[139.7530138,35.7351341],[139.7531248,35.7351299],[139.7532045,35.7350816],[139.7533786,35.7350102],[139.7534013,35.7349774],[139.753535,35.7350824],[139.753642,35.7349929],[139.7537732,35.734887],[139.753935,35.7347679],[139.7541647,35.7346344],[139.7543197,35.7345908],[139.7545493,35.7344112],[139.7547694,35.734321],[139.7549361,35.7342538],[139.7549578,35.7342451],[139.7551081,35.7341812],[139.7552528,35.7340973],[139.7555544,35.7339487],[139.7559158,35.7338299],[139.7559909,35.7338277],[139.7561841,35.7337798],[139.756452,35.7336652],[139.7567199,35.7335504],[139.757033,35.7333761],[139.7573618,35.733161],[139.7576531,35.7330098],[139.7580356,35.7328701],[139.7583632,35.7327582],[139.7586528,35.7326778],[139.7586609,35.7326755],[139.7587215,35.7326586],[139.7589125,35.7325658],[139.7591215,35.7324234],[139.7593448,35.7322648],[139.759403,35.7322268],[139.7594634,35.7321419],[139.7595688,35.7320571],[139.7598876,35.7318926],[139.7599406,35.7318648],[139.7601501,35.7317111],[139.7603754,35.7318078],[139.7605753,35.7318571],[139.760628,35.7318848],[139.7607977,35.7320146],[139.7609378,35.7321198],[139.7610754,35.7322125],[139.7611661,35.7322742],[139.7612234,35.7322982],[139.7612916,35.7323608],[139.7613509,35.7323935],[139.7614085,35.7321872],[139.7614344,35.7321322],[139.7615191,35.7319589],[139.7616408,35.7317888],[139.7617193,35.7317482],[139.7619889,35.7317095],[139.762083,35.731724],[139.7622456,35.7316157],[139.7622652,35.7316014],[139.7623101,35.731543],[139.7624603,35.7313472],[139.7625479,35.7312349],[139.7625518,35.7312325],[139.7625847,35.7311909],[139.762661,35.7310986],[139.7627241,35.7310202],[139.7627444,35.7309956],[139.7628061,35.7309192],[139.7629039,35.7308011],[139.7629645,35.7307278],[139.7630557,35.7306164],[139.763159,35.7304898],[139.7632224,35.7304128],[139.7632932,35.7303322],[139.7634643,35.7300972],[139.7634901,35.7300618],[139.7636896,35.7298187],[139.763759,35.7297336],[139.7638393,35.7296212],[139.7638818,35.7295644],[139.764014,35.729344],[139.7641135,35.7291828],[139.7642728,35.7289567],[139.7643895,35.7287582],[139.7644359,35.7286715],[139.7644966,35.7284997],[139.7645885,35.7281936],[139.7646697,35.7279922],[139.76481,35.7277605],[139.7648447,35.7276201],[139.7648351,35.7275548],[139.7648104,35.7274531],[139.7647826,35.7273928],[139.7647768,35.7273733],[139.7647775,35.7272448],[139.7647812,35.7271693],[139.7647138,35.7270251],[139.7645868,35.7266365],[139.7645477,35.7265247],[139.7645011,35.7264472],[139.7644857,35.7264112],[139.764462,35.7263373],[139.7644019,35.7261068],[139.7643639,35.7259558],[139.7642974,35.725742],[139.7642478,35.7255627],[139.7642134,35.7253872],[139.7641778,35.7251926],[139.7641534,35.7250636],[139.7641432,35.7250174],[139.764139,35.7249902],[139.7641554,35.7249234],[139.7642206,35.7247524],[139.7642275,35.7247221],[139.7642295,35.7246288],[139.7642234,35.7245938],[139.7643147,35.7245749],[139.7643014,35.7245265],[139.7642927,35.7244601],[139.7642273,35.72434],[139.7641785,35.7242502],[139.7640383,35.7241463],[139.7640153,35.7241092],[139.7640119,35.7240724],[139.7640154,35.7240267],[139.7640302,35.7239503],[139.764039,35.7239086],[139.7640312,35.7238845],[139.7640028,35.723838],[139.7639458,35.7237832],[139.7639098,35.7237421],[139.7638936,35.7237137],[139.7638907,35.7236527],[139.7639028,35.7235254],[139.7638916,35.7234776],[139.7638753,35.7234283],[139.7638407,35.7233682],[139.7637986,35.7232865],[139.7637696,35.723222],[139.7637725,35.7231878],[139.7638328,35.7230788],[139.7638401,35.7230533],[139.7637912,35.7229985],[139.7637517,35.7229206],[139.7637002,35.7226375],[139.763689,35.7225915],[139.7636666,35.7225686],[139.7636146,35.7225397],[139.7635225,35.7224805],[139.7634997,35.7224573],[139.7634874,35.7224391],[139.7634791,35.7223786],[139.763479,35.7223453],[139.7634923,35.7223116],[139.7635246,35.7222699],[139.7635588,35.7222346],[139.7635755,35.7222065],[139.7635805,35.7221702],[139.7635695,35.7221173],[139.7635544,35.7220935],[139.7635266,35.7220704],[139.7634928,35.7220456],[139.7634518,35.7220028],[139.7634197,35.7219572],[139.7634096,35.7219362],[139.7634157,35.7219002],[139.7634619,35.7218579],[139.7635298,35.7218011],[139.7635437,35.7217774],[139.7635498,35.7217419],[139.7635449,35.7216471],[139.7635455,35.7216011],[139.7635485,35.7215753],[139.7635671,35.7215458],[139.7636039,35.7214997],[139.7636725,35.7214361],[139.763831,35.7212923],[139.7640475,35.7211078],[139.7642561,35.7209264],[139.76447,35.7207416],[139.7646937,35.7205525],[139.7650008,35.7202922],[139.7653428,35.7200047],[139.7655901,35.7197865],[139.7657128,35.7196767],[139.7658356,35.7195545],[139.7659775,35.7194115],[139.7660662,35.7193188],[139.7662107,35.7191659],[139.7663514,35.7190078],[139.7664826,35.7188634],[139.7664875,35.7187994],[139.7665348,35.7187443],[139.7667765,35.7184947],[139.7668638,35.7184058],[139.7669461,35.7183221],[139.7671705,35.7180907],[139.7673204,35.7179361],[139.7674829,35.7177588],[139.7675808,35.7176533],[139.7678986,35.7173],[139.7680074,35.7171679],[139.76808,35.717008],[139.7681144,35.7169088],[139.7681785,35.7167872],[139.7682379,35.7166741],[139.7683099,35.7165672],[139.7683126,35.7165632],[139.7683793,35.7164349],[139.768409,35.7163899],[139.7685094,35.7161915],[139.7685727,35.7160691],[139.7687006,35.7158254],[139.7687471,35.7157272],[139.7686217,35.7156962],[139.7681613,35.7156694],[139.7680246,35.7156192],[139.7677043,35.715645],[139.7675884,35.7158037],[139.7673985,35.7160577],[139.7672663,35.7162341],[139.7670601,35.716492],[139.7667804,35.7168044],[139.7665253,35.7166954],[139.766422,35.7166744],[139.766313,35.7166515],[139.7659824,35.7164966],[139.765932,35.7165282],[139.7658887,35.7165785],[139.7657267,35.7167361],[139.7655252,35.7169341],[139.7654296,35.7170269],[139.765281,35.7171741],[139.7649266,35.7175211],[139.7648389,35.717466],[139.7644965,35.7172515],[139.7644358,35.7172123],[139.7644476,35.7171903],[139.7645074,35.7170802],[139.7645236,35.7170511],[139.7646181,35.7169111],[139.7646521,35.7168623],[139.764701,35.7168313],[139.7649923,35.7167655],[139.7652003,35.7167844],[139.7653024,35.7167673],[139.7654717,35.7164856],[139.7655216,35.7163728],[139.7655672,35.7162699],[139.7657851,35.7159532],[139.7658291,35.7158884],[139.7658722,35.7158201],[139.7658895,35.7158118],[139.7659253,35.7157383],[139.76595,35.7156961],[139.7660157,35.7154674],[139.7660605,35.7150779],[139.7660361,35.714953],[139.765937,35.7149682],[139.7659354,35.7148669],[139.7658944,35.7147583],[139.7658171,35.7146216],[139.7656576,35.7143976],[139.7655671,35.7142705],[139.7656702,35.7140304],[139.7657171,35.7139211],[139.7656954,35.7138104],[139.7656624,35.7136415],[139.7656414,35.713544],[139.766032,35.7134055],[139.7664942,35.7132404],[139.7667898,35.7131884],[139.7671478,35.7131098],[139.7673711,35.7130078],[139.7675576,35.7129107],[139.7677139,35.7127962],[139.7677269,35.7127676],[139.7677896,35.7125799],[139.7677507,35.7124165],[139.7676595,35.7120779],[139.7676273,35.7114692],[139.7668642,35.7114049],[139.7668535,35.7112993],[139.7669809,35.7112819],[139.7669715,35.7110848],[139.7673061,35.7110723],[139.7680973,35.7110428],[139.7680958,35.7103363],[139.768038,35.7102563],[139.7671891,35.7103788],[139.7667454,35.7103865],[139.766635,35.710387],[139.7666474,35.7102783],[139.7668498,35.710282],[139.7668522,35.710193],[139.7666554,35.7101894],[139.7666605,35.7098227],[139.766813,35.7098234],[139.7668157,35.7094677],[139.766789,35.7094676],[139.7667877,35.7094282],[139.7667483,35.7094282],[139.7667591,35.7093896],[139.7671674,35.7093919],[139.7671691,35.709194],[139.7665912,35.7091908],[139.766587,35.7088003],[139.7668754,35.7088063],[139.7668843,35.708684],[139.7665886,35.708675],[139.7665895,35.7086276],[139.7676602,35.7086309],[139.7679787,35.7087645],[139.7681709,35.7088211],[139.7688011,35.7088678],[139.7688884,35.7089135],[139.7691745,35.7087399],[139.769177,35.7087019],[139.7698465,35.7088121],[139.7699501,35.7088312],[139.7714732,35.7091435],[139.7715528,35.7082898],[139.7721028,35.7083253],[139.7721072,35.7082927],[139.7722455,35.7082995],[139.7724489,35.7083118],[139.7724617,35.7081441],[139.7724289,35.7080645],[139.7722986,35.7071741],[139.7700791,35.7073526],[139.7699582,35.7052349],[139.7703908,35.705205],[139.7708976,35.7051694],[139.7715833,35.7051204],[139.7720003,35.7050955],[139.7720701,35.7050933],[139.7721556,35.7050997],[139.7732677,35.7050056],[139.7730094,35.7028553],[139.773685,35.7027975],[139.773393,35.7017533],[139.7745229,35.7016582],[139.7751015,35.7016191],[139.7756534,35.7015232],[139.7755736,35.7005883],[139.7757009,35.7005718],[139.7769724,35.7004652],[139.779093,35.7003051],[139.7805613,35.7001497],[139.7805422,35.7000434],[139.7805051,35.6998322],[139.7804246,35.6993784],[139.7803844,35.6991616],[139.7803241,35.698819],[139.7802935,35.6986513],[139.7802691,35.6985188],[139.7801639,35.6978438],[139.7809873,35.6977754],[139.7813799,35.6977452],[139.7823013,35.697672],[139.782718,35.6976378],[139.7828483,35.6976267],[139.7828338,35.6974787],[139.7828048,35.6972228],[139.7827764,35.6969827],[139.7827538,35.6967991],[139.7827462,35.6967315],[139.7827334,35.6966138],[139.782898,35.6966031],[139.7834339,35.6964907],[139.783712,35.6964016],[139.7841217,35.6962713],[139.7843569,35.6961959],[139.78462,35.696111],[139.7848701,35.6960298],[139.785145,35.6959445],[139.785413,35.6958597],[139.7857947,35.6957404],[139.7864365,35.6955396],[139.7871964,35.695301],[139.7880117,35.6950454],[139.7888958,35.6948026],[139.7888131,35.6938566],[139.7888127,35.6938529],[139.7887248,35.6928462],[139.7889017,35.6920574],[139.7889022,35.6920553],[139.7889807,35.6917045],[139.7890466,35.691412],[139.7893136,35.6909579],[139.790187,35.6894764],[139.7904678,35.6892146],[139.7904703,35.6892123],[139.791997,35.6877894],[139.7921593,35.6874871],[139.7928918,35.6861236],[139.7928959,35.6861161],[139.7929423,35.6860299],[139.7929432,35.6860283],[139.7929846,35.685951],[139.7931527,35.6850259],[139.7926785,35.6835416],[139.7925222,35.6833508],[139.7919041,35.6826111],[139.7908626,35.6813231],[139.7906551,35.6810697],[139.7893701,35.6794997],[139.789038,35.6789561],[139.7890372,35.6789547],[139.7887476,35.6784843],[139.7885735,35.6781988],[139.7883471,35.6778284],[139.7881006,35.6774245],[139.787921,35.6771304],[139.7877976,35.6769245],[139.787793,35.6769125],[139.7875666,35.6763049],[139.7875645,35.6762992],[139.7868299,35.6743006],[139.7868253,35.6742878],[139.7867852,35.6741372],[139.786646,35.6733359],[139.7866432,35.6733221],[139.7865673,35.672868],[139.7868107,35.6722278],[139.787041,35.6716241],[139.787307,35.6709209],[139.7875475,35.6702856],[139.7877967,35.6696323],[139.7880784,35.6688938],[139.7881108,35.668687],[139.788208,35.6681183],[139.7882644,35.6677697],[139.7883029,35.6675343],[139.7883418,35.6672982],[139.7883687,35.6671322],[139.7883735,35.6671019],[139.7884064,35.6668289],[139.7884414,35.6665367],[139.7884695,35.6662962],[139.7885002,35.6660935],[139.7885486,35.6657727],[139.7885958,35.6654606],[139.7886242,35.6652683],[139.7886301,35.6652298],[139.7886398,35.6651886],[139.7886765,35.6648143],[139.7888142,35.6634098],[139.7888145,35.6634071],[139.7893764,35.6588487],[139.7896572,35.655901],[139.789773,35.6541843],[139.7891321,35.6537445],[139.7876497,35.6527796],[139.785633,35.6514668],[139.7814803,35.6487701],[139.7744703,35.6442123],[139.7681662,35.6402011],[139.7770288,35.6375818],[139.7809062,35.6329102]]]}}]}